PK_LOCAL;Address Number;Customer Address 1;City;Country;State;Region Name;Division Name
94020ff0cee39b85988918c08680d7d4e5d85623e299092fbdc756fe11c91d36;10013341;"";"";"";"";International;International
a10a889e284fab284ac6889443af252ecea4b68bb5303ef77b2e38b12786798c;10016780;"";"";"";"";International;International
c2f4d08776eeffd388fb9d726a3efb00a9ae701f13d444e17d443cc050208866;10027356;910 North East 4th Street;Grand Rapids;US;MN;Central;Domestic
109b692559923a87b1e7f97545e5f3e129d91e3ca30ff4ba0817c253ec9c688f;10024704;"";"";"";"";International;International
9391ffe69421c1a9e06e3a982025f6803e25f6d404610f16b0e9897269eb6f6d;10025049;13270 SE Pheasant Court;Milwaukie;US;OR;Western;Domestic
22c5b298ffe74e44d4efcd0f40539648d4f7c9c871d253a1a86d5881449d52b9;10002149;"";"";"";"";International;International
e7e69404abac700f80ad5a2056e31e64e85b29209c4921e85a982157e9bbaa2d;10026532;500 Highway 18 West;Garner;US;IA;Central;Domestic
06c90580e47691478e6e1a27b9dc0f4f5d166916f0801cc5268f7d6a71a1b157;10022962;"";"";"";"";International;International
74b4bef050277e4d96c16bc5a2dd4c2fb585a23388f32e4a792bfe7aae7f27c7;10000496;"";"";"";"";International;International
00b4b8aa346a286be59a51570ec8425c31524aa146c708dce45435b2f65ac7b3;10016047;975 Main Street;Nashville;US;TN;Southern;Domestic
6c59a14107fac73c9d3667ac5019a15c643c0b9bdad41828bd2239684ffa0377;10023509;513 West Waters Avenue;Tampa;US;FL;Southern;Domestic
d1b031b5bf0ea06ef651ec26af2e7b08dec037bae3aaae00ae5b63b304c77b9b;10013397;"";"";"";"";International;International
4c6050d20196061d89bf380a63f0cc899706f1455b6d05356a506745ce68ddd0;10020281;"";"";"";"";International;International
77c160ebae621b666fb1df1c8af687f73c8f0c2d9f63880251160ed53a63a54e;10019897;7210 Gateway East;El Paso;US;TX;Southern;Domestic
8fc296bca4629482aaae25710bc579166d676c50e250807d73b1ef0a93dcc538;10004255;3F Shinwoo Building;Seoul;AU;Não informado;International;International
9378fb3041788cc79967b3f5ae75e9c9fee885b9b08a7b580b01f89dbf9dec84;10024262;124 Hegenberger Loop;Oakland;US;CA;Western;Domestic
b41ce24d78bee50c01b0255254656d953a90edd6a5249326d292510f75874e1c;10025296;666  South Thompson Road;Sun Prairie;US;WI;Central;Domestic
572ace77e46c983ff9998303061fa5c5297e0f01ea74be677e0e78538caa7475;10024010;Attention:  Accounts Payable;Mitchell;US;SD;Central;Domestic
dfa529758cebd5bbd0ef58a369efc795c74d52a394833aa68a9eef054573dacb;10025038;PO Box 568;Mechanicsburg;US;PA;Northeast;Domestic
de40939b34b5f389208c1b687952ec9676f5ed4191a7e5662d1f0495cb7bf13f;10025023;815 Circle Drive East;Saskatoon;CA;SK;Canada;International
6cc16ec09411a44232295da26692a6fcd3e5cfd302863cc2d61314bbf368af1c;10019879;3564 Buford Highway;Duluth;US;GA;Southern;Domestic
1c3263a8b641e4ccd4fc5dc14d90d47ef53c2616c0c5ad8ae817dcdaa0150a5c;10009657;12 Lexington Street;Lewiston;US;ME;Northeast;Domestic
d52e6275eb34c2bdd70bb03368021d6c8d8376dce45976ca6acf5216a518b7dc;10020449;Attention: Rodrigo Yrarrazaval;Santiago;UK;Não informado;International;International
a91e48991f507789d5e7acc0de33a6c477e9b5c689c140a6a5f98014198d808c;10025248;730 North Central;Kent;US;WA;Western;Domestic
e4fe90563c668644263ef38374f70b0d945602c6183d1b2c2ea7b266af9f0f6f;10012425;RR1 Box 9;Oslo;US;MN;Central;Domestic
4df4b4d051f04e13cd61ce3de86598dec7ab35946e2ca8d80ede5700b59d2c33;10005810;"";"";"";"";International;International
6fbb9f0113a9f6b369ceb2ce2ab0311f5e2cb9936c5f12d9b90d4f7ac5c4df31;10006862;4410 Highway 80 East;Pearl;US;MS;Southern;Domestic
2eaa963be18c9dfc3393e76e32f9667854a3f1d058ed821f6c4cea9066d7640f;10010970;1477 E Highway 356;Irving;US;TX;Southern;Domestic
9bfeb8a54745832decf579149de57534d3ae6502b6f0a12852a1d65fff988f75;10026294;"";"";"";"";International;International
509762caaf396d8d78cf626b1cd90115ee85b09eabe767ab390edf411cad5797;10022201;Av Blandin Chacao;Carcas;UK;Não informado;International;International
5586ad5ba32d825471e070ed296e1db59fa207cf5d1dddae27b69183e658ff38;10000473;3290 Monier Circle #100;Rancho Cordova;US;CA;Western;Domestic
680b20fcf39fedd03cf287e33ed743e6fac235382b061f0c09eed655b2f1c862;10006977;"";"";"";"";International;International
438c81c9f9024a8607070a19882b49864d487ccbad1e78b97fbd2ad22e86e61a;10027050;3204 W Mill Road;Milwaukie;US;WI;Central;Domestic
69be103b9d52f75077f9d13d804dc02073b556680ed6687302b7847e53dc7435;10011521;32722 Highway 45;Okolona;US;MS;Southern;Domestic
7725a0f92f6d80b4660532dd4faad978c40103f4b47f32ae500aa0c963682f06;10018518;"";"";"";"";International;International
562b5a036fdc193c854ec0e4659a4a084b0b2dee41e77cb89182c3374c543b5c;10025583;One Industrial Complex;Nesquehoning;US;PA;Northeast;Domestic
68e9ab75f1a0c344f793540355dc547c31fa6487bda2084a76049afe4f5d625e;10002765;4760 NW 165th Street;Hialeah;US;FL;Southern;Domestic
a2c4176041bc713ef1c98d38df72d422bf8957e9bba353fea8b5d453e533705e;10021270;"";"";"";"";International;International
aebe2f593c10c2d78469e4498321884033b4209c8ff6545e9ba308cd20d019b6;10020080;"";"";"";"";International;International
0c8f97100c90220a648a2bd034930f10272a2c05f1c4712310be1cb7ad52b5e9;10005919;"";"";"";"";International;International
bedf4f23445cbb317f30f4f1f098f1cb139fb0c5955e06135ca9423ffa0e0048;10017314;8901 Montana Avenue;El Paso;US;TX;Southern;Domestic
327eab845ac5fde84e05b7554ca427bc5216afa3eefad440905cee3e08cc394c;10020192;3248 Auburn Boulevard;Sacramento;US;CA;Western;Domestic
32fa08979641f24f9e0524b3cda0a8a844f3e7db7f2dbb881aec3c54e2424437;10021412;13101 SE 84th ave;Clackamas;US;OR;Western;Domestic
4bebc29b987f2d8c0865b27e51d1bed4cad7c2995f51787413bb79771908e19b;10026081;Weser Ems Strasse 2-4;Bremen;UK;Não informado;International;International
861c6a8efc0b12d3a7ca23fc34c8ce1d9db2a5892000a276392712b6c2cc4425;10006093;PO Box 5364;Evansville;US;IN;Central;Domestic
cc3ac1c53d9eb3fc4d2ec0268420071ab82329feb48cda90ff78e5e7b84368e0;10010717;208 W Main;Waterville;US;KS;Central;Domestic
55ea9952cd3118c5fa62aa2356299a8f3c5388b81e731bb9df43d0449d04ae69;10007253;"";"";"";"";International;International
55e1c2dba09c899a8fbeddb9a3f1f36773ee67b3115602e6ec58c40abb83696e;10012128;"";"";"";"";International;International
65283a5e1b40ba26fbfcdd383aa578cca5876a39103ede8cc6435c1fc5f04074;10016549;PO Box 6307;Jacksonville;US;FL;Southern;Domestic
5d08ce1fd9f4737e2c3dc913ebd9950005b52ad403273fb58ca239761b6b52a7;10013080;"";"";"";"";International;International
f06b697487a580fe87e02f07d5fb3c388e1322064a4fdfbde746080ea37db359;10000461;1391 Gay Lussac;Boucherville;CA;QU;Canada;International
b7e2c7c5d4743302b93f80cce6dd78cc019807bace7718180d4cc9f7f56a2e20;10005006;601 East Gowen Road;Boise;US;ID;Western;Domestic
6a70c8a34886da194fd8edf1b4ef4d74dfe98d11f4d6599eb52e4d4dfeb15363;10007117;8F No.19 Chang Chun Road;Taipei;AU;Não informado;International;International
626c5c95a61b84ade8d48380d2d1f61693b53c53b2f7a9dea29d8ea1a95268d0;10005236;"";"";"";"";International;International
04e2c4a267fb0370c53a0fdb8f95adbf26a862950c07d611010a83d8d6f2c5f4;10010832;"";"";"";"";International;International
4a7b905302f7fef2e52e462d27f32050af2e2a9fb11b7a4ad62b3251166d29c4;10016548;4700 Rangeline Road;Mobile;US;AL;Southern;Domestic
1de571ff29adb90b3aa6e3dace89c0618f4ecfbae35529d231f84b36e24a3990;10025269;Attention  Accounts Payable Department;Overland Park;US;KS;Central;Domestic
a58c28ab2c6a0ae650543b1ef7cfff10429a4784472c403e37c1057fa73c8f90;10000475;5745 N Tryon Street;Charlotte;US;NC;Southern;Domestic
8e74cfd69c30f36dfef752b9c77925c86505383fa819f55fc974e161e78c2655;10020927;One Cabela Drive;Sidney;US;NE;Central;Domestic
966ce9640f1851f478fe62e4338128753b1b38b9a41583c993bf147d4f027922;10021736;"";"";"";"";International;International
2fe95247c48c3f6d5798b0b393ddcc6917fcbbce9071189ecfcc915abb780852;10023538;Attention: Accounts Payable;Fort Worth;US;TX;Southern;Domestic
d2e2841a934e86e5a08e7437c12fbb20f0ace79b18f4ec9e0d262cc100b6bae5;10014238;S Gravendam Seweg 53;2215 TC Voorhout;IR;Não informado;International;International
3cce4ed06089784bd65a5ce546a01de64a9a54ffe202919ec99a14dac9d4ab54;10022444;Detroit Technical Center;Livonia;US;MI;Central;Domestic
5148a1bc6f7158e0007f96cfdc1dc3472433343485934f1d548f5c59ad6dabaa;10027119;Não informado;Não informado;UK;Não informado;International;International
2aac329a6190acc46c7803b418e2e4b4a2f39c8f8bea05711571971d4ef2b9e7;10020227;"";"";"";"";International;International
9781c9853b3b6c1636f59c9bd237971f284853ab89e5a64868bfc9d177eb4aa7;10011546;"";"";"";"";International;International
3c8ffa4ae425631de3bafc704b5ae05e1eda4b37f109448355f8cbad7dfab77d;10011600;"";"";"";"";International;International
00d9fed9b560adfa5444ab97f8b8abcf742a0b6b1f9253b6e46036f259e629ef;10022470;Attention: Linda;Ormond Beach;US;FL;Southern;Domestic
bb8591d72a4c9b8cd8f1d738abbce5328e099698c22ecde1827a30ef144cf017;10017852;"";"";"";"";International;International
b3b462b3e2dd4284083d66557f1cc24a328c4b9acd7dbae85d98df66920b15c8;10025040;6127 San Pedro Avenue;San Antonio;US;TX;Southern;Domestic
b2b3fd21b516e0d712363082732f3c5b536a23f9724aa79d7c565e086d81dfec;10003857;"";"";"";"";International;International
bd4367724dc79d868f0ade6aac3818042b1eba08d1c806da754832f2822fe3c8;10015030;2192 Viking Drive;Anchorage;US;AK;Western;Domestic
d36ffad537c4511169a040129aaf7f520fbce766ca757ecae5fec45427cc26af;10017072;4200 S Morgan Street;Chicago;US;IL;Central;Domestic
94c2ddd72dc9fa0a715519578aa3a5a78bb24847f1349ba0a76a6e458bc4f59f;10026336;PO Box 26;Columbia;US;SC;Southern;Domestic
274508502147a246b57d0f1bf4fb1157f048eb0c8a82a9972ed34f93d6830f29;10022450;Attention  Accounts Payable Department;Overland Park;US;KS;Central;Domestic
46ebf8fc57f20157f4b5e86f4f1f7d77841e168efeaf22436ba2dfb8d675889c;10022678;PO Box 24217;Richmond;US;VA;Northeast;Domestic
b8d170679c204e8c4aef3001b5992ab938471f1a7ea5e4321840a5b7450edd97;10000488;"";"";"";"";International;International
12b79181247dc3c2713a43f0e606df1629f530a68b69393032e3d039817d23f1;10022746;Landstrasse 18;A 5102 Anthering;UK;Não informado;International;International
ef2fa2fddae03ab51f96508d0920e340024878162ce219bed5e27a10ecff2388;10014810;Attention: Accounts Payable Department;Canton;US;OH;Central;Domestic
aa23061801592f2d45eec1430129726f6ea69e1ad29eea74c9603c8ec3993537;10018146;Box 1178;Fort Macleod;CA;AB;Canada;International
7a765e6ab038d83d514271106bf7c1f31d82578973636de887060429e7f70b3c;10025237;Central Accounting Service;Oakville;CA;ON;Canada;International
7cc5ac45ef7448f5da2f713e6cb3825a4099b6a3d189996776b3c44595b24026;10026521;97 Banawe Street;Quezon City;IR;Não informado;International;International
e100191ff55519ea1e40d1799f785dfb72070f17f72cd3715918329b69910f36;10000601;1550 Aereli Avenue;Creedmoor;US;NC;Southern;Domestic
49f7bf0c3f97f5755e598500166fa7640521f4eaa4c77a0128cefd0196b144fd;10009654;904 Billy Mitchell Boulevard;Brownsville;US;TX;Southern;Domestic
de44986463c83f339b141ca3975d8f6ce684eeb3f34cd59f93ad617decfab357;10011842;"";"";"";"";International;International
16e1f63b09750549ccc5ef923f44714a32a62a1ccf02955fa5c15304a3b39b29;10000453;Não informado;Não informado;UK;Não informado;International;International
59aa7ac72a9ec1cb0d2580d3d31743e14aef9d6d3ef690070cc21f300b0f342b;10019812;"";"";"";"";International;International
38fe6aa872a22080cca98a327c78cc19ab24d5ae13b76204ca6ca91ceec3064e;10018603;PO Box 12932;Dubai;UK;Não informado;International;International
af4558c6d6cee3117c5e1f52bcc4bf9d43c7f90f3be82a269f275a0055cb1423;10019880;New York PDC #20;Somerset;US;NJ;Northeast;Domestic
83aaca18eaa08ce9eac13d0fd1fb8323ebc5a97d8bcb536cf0576a2681d29ab3;10012369;"";"";"";"";International;International
9b494b792534a361a4bfc19a8a259252f61c478ed8ccc50a64da428f59c37f35;10021160;"";"";"";"";International;International
9cb06cff0b0b7b9cbea6eeee21344693fc6c977451f1eb267589dd8ee92af172;10023715;Central Division;Plainfield;US;IN;Central;Domestic
64e481d34619faa5bdf0fc36970d1e69d3a287e30ec08b7d5fee93f318515932;10025353;"";"";"";"";International;International
e51609dbd246a0c99a3d7b7e6af0c38801446b165c003c25da6b04bdb323c7e7;10010969;317 North Main Street;Elkhart;US;IN;Central;Domestic
7b6744d60724227bdd502bc3db19b2d5bd1a1055d8fe9ad69706a1c6de3d481a;10002153;"";"";"";"";International;International
8694eb9bd6af3c219eadb52128894624663cff37fd35d864fe7c65cc316291e5;10024477;Modulo 2 Manzana 27;Santa Cruz;UK;Não informado;International;International
1ab688d96fb7d276ec7f46c729998ca1bcc736e298b7496be05bb10cf9c275ba;10026009;2 Calle 25-80 Zona - 15 Vista;Não informado;AU;Não informado;International;International
fe8d7f2b7f2d60e5a4fd385c130770e63bf4ef876ff45e24d3c87e6e77a58ecd;10022252;13907 S Kostner Avenue;Crestwood;US;IL;Central;Domestic
04b6d872e2a5d72c97b9c130d91e49d9d5eec04b36a83be1a9656a6c199ae15d;10004256;PO Box 20505;Portland;US;OR;Western;Domestic
441289795c8c8dd3aae7129bd61e780d35524f309746f1151f1e35ba03caeb8f;10027583;Attention: Charlene Hoyer;Morton;US;IL;Central;Domestic
794126c74338f43d68e5761b6f867929c81c2bdacc2bd07e421adb3fd071fc17;10009672;Attention: Accounts Payable;Phoenix;US;AZ;Western;Domestic
709ae63ed0a7c30642c78e4ca5fd541436302bf43969d235b2d558e76b5aaf03;10021242;"";"";"";"";International;International
185038130f3e79043d5ad2c9446237e2283fcea2998f137e76e15953ee06d787;10018371;Solec 44;00-394 Warsaw;UK;Não informado;International;International
13d3485c8b0cf73fb96e9f595cfe87249e7508249e2d60306cd0718820a0bde7;10006037;7225 NW 25th Street;Miami;US;FL;Southern;Domestic
0218da53ddc4a65d21194b0575119ef30c7085ffa5d7a509f5fd1d501d301d52;10007120;DBA Pronto Jobbers Warehouse;Rexburg;US;ID;Western;Domestic
e5ca2232cce04b1891b80134f7f098c899327c5eecd076ac3ef4baef64e5eec8;10000478;8120 E Doyle Springs Road;Little Rock;US;AR;Southern;Domestic
f24de4a38368eb5695e01d2705901f76e8bc315927c17cd72984448a7fa5e7c0;10022730;21533 Mound Road;Warren;US;MI;Central;Domestic
f99c07e6e8053b0c2cf497708f5ef5a3c4b5d095c3f1af9f278f87bf01a89fa8;10020684;5415 Lamco Drive;Montgomery;US;AL;Southern;Domestic
c034f33bd094738292e72a40ae70a67ec69874c348320b351bce4a07e3debcdc;10012851;"";"";"";"";International;International
fe9d12569357e192a5b61283f8fc858db1357458ebfd2142116cb78c25ded973;10023489;3248 Auburn Boulevard;Sacramento;US;CA;Western;Domestic
322b6f166014ac42eece49675c452bb56fe6d033c6ea40bb5d6c4ff4d5d22c99;10007258;"";"";"";"";International;International
2bdbffb9fad017877eaa275c2d6bc55f6c84deb0c65e6c35afa90c5f7d23befb;10020962;7320 West Market Street;Mercer;US;PA;Northeast;Domestic
fdc23032718b21ca6229c3686211551bbb8c489c0d2c8ae6ac126b6776771c5d;10020184;Corporation USA;Smyrna;US;TN;Southern;Domestic
ccf1ff581391cbb6309dd269010cc9a2060bbe5d5c9c008f92d12d5c55015d39;10020915;2600 West Route 120;McHenry;US;IL;Central;Domestic
cddd77d0e7acdfefd29bb0ddf519f2e1640ced83ccdf56aab3a9abe9e677dd66;10009656;PO Box 450;Trinity Center;US;CA;Western;Domestic
c0c643af26d6635c598f0911408f6d8729f53036d50ac6af522e86b91ee89f3e;10016542;Greenville PDC #23;Greenville;US;SC;Southern;Domestic
57dfd4b6bca3a5f42bd2807ce1e4784bdaffb8def416e4888a063ee7cb1b6454;10021422;3251 East Imperial Highway;Brea;US;CA;Western;Domestic
9fca455bdd38118896a71229e6dfd03671ddd9f0f3e224f659d838e1629bbbd7;10019900;3248 Auburn Boulevard;Sacramento;US;CA;Western;Domestic
728af10dc1a3feba7514c73e45d7b4700a989db11b10235076b4bbe8639853a9;10016858;6590 SW Fallbrook Place;Beaverton;US;OR;Western;Domestic
0e3f53daf239f3e8db394c14771b7c2c5ea5f945599f76479137f4dc1d3d6ffc;10025032;c/o Rampar International Trade Corp.;Montreal;CA;QU;Canada;International
a3a6b787d57f8069da1c4a323cabf1084f449ebb2589597591aac95633661b13;10002159;"";"";"";"";International;International
98446bc1b7471b93907942ad8b9f1a3d70e42394f0cffe30ad8cec82b3559ed2;10025250;8503 Hilltop Drive;Ooltewah;US;TN;Southern;Domestic
2672f642f5c6761f40dfb433efdd67b469b5bacba5f9b331a963005e376c5f72;10021139;PO Box 3382;Livonia;US;MI;Central;Domestic
6e9bf875367296a841ec20daee6fa916092bf7d4d42e13206fcc1fb4f8c15d19;10025814;5300 Glenmont Drive;Houston;US;TX;Southern;Domestic
d0c3890735637e397333cc0ccf5b72825f151880c7e3d6a3288097a3e049da66;10000501;"";"";"";"";International;International
81563d2e3ab027efc808f15c596ec3aff09b6603ac4a8e2b46c1ebf7ea26c153;10025558;6104 Young Road;Little Rock;US;AR;Southern;Domestic
892c46d48121fe4527468caaffa08fe2f2c906fb5bd25cef620b72bc66693f6d;10014495;12900 SE Capps Road;Clackamas;US;OR;Western;Domestic
811baf85fe05cb9b4a8ed6d48090ee3a06b7517008d3480bf7015e4504b0b995;10009679;2400 Highway 19N;Meridian;US;MS;Southern;Domestic
4a3c499337068966ea724b8a5c0267386d23ff65b66432ece1443ab79df30d96;10024915;"";"";"";"";International;International
01a67511d7e1b49ea4b954c446e9082acc969c8a5826ca07bef418bd6bb29e0e;10015495;Attention:  Accounts Payable;Kansas City;US;KS;Central;Domestic
341e69feee5436952c8e9aea1e31aee725992db94a2a2085ba457164f9e5a826;10007123;PO Box 194255;Little Rock;US;AR;Southern;Domestic
f24dd50b60f12364d5ac67662f78d9c3b33dc0110f91ca7f1a0ca2935a1b4839;10021184;14312 Stenbock Way NE #F;Aurora;US;OR;Western;Domestic
3f1e02b8b31088c790549a2d8c77537bb7b542ffd8a8b5f97452440c5c2d96a0;10025288;Kirchstrasse 39;Furstentum;AU;Não informado;International;International
0669f43b14f6c28aec531d1073c9da7112b7fa0c375250907545c13e6bbfc391;10014047;1510 Merced Street;Fresno;US;CA;Western;Domestic
537647ec9a9c0d0e0272dd2409c4cabcae26f5a05fb4883b60e0104ffed016ff;10026055;5100 Highway 93 South;Eau Claire;US;WI;Central;Domestic
461dc8a27155234b22bee4111b3184217263c0eb835cb8905e14adb9ed76fa3b;10010990;"";"";"";"";International;International
a1a4c8a9808ebc27d58eb4746c159f4271a98ba6cf4e3ac8e15fda4ebe21ff26;10021179;316 Millar Avenue;El Cajon;US;CA;Western;Domestic
103882f4a720b1f789be32f320a28fc40ba66b3d5a235cffc36ac4d39db51f45;10001786;"";"";"";"";International;International
a7156874ed7460fcd222cb81d3ffd2c09d50b71f39be661017ff961f67883b73;10022249;201 Old Boiling Springs Road;Shelby;US;NC;Southern;Domestic
1b5eb1520c0fb4cdc7c89cb4ac2093ce58c06387012621d9770ecfc42379ae38;10027082;9111 41 Avenue;Edmonton;CA;AB;Canada;International
a61133555e37bf979fbfc832ef7069d1d3020959c42a9737f8284e22a1d7c64d;10014803;3056 Eastern Avenue SE;Grand Rapids;US;MI;Central;Domestic
3a84eea8f52d5d42414d53dfa8da5c1c625da1cb5c66b07280f390d8accfbccb;10011093;"";"";"";"";International;International
aef29ad0c61c7a54f22f7626bc572ac0c8f57427e14a64502a69c2422debbadb;10021204;480 Gordon Baker Road;Toronto;CA;ON;Canada;International
9c23c7adee81218468c5420048e35a8df2efd55178fc5b4b36e99bff47736aae;10025267;"";"";"";"";International;International
2c1e65d48d74b0e1eac2536e1f46efe9f91672d76941b9f72ce584bd3cd9fc80;10009631;1477 Davril Circle;Corona;US;CA;Western;Domestic
024498d8f8b272d9dd135db88e033f18d030b1d762b7108215a72f776e5778f1;10026078;PO Box 461090;Bedford;US;OH;Central;Domestic
b2be58835c4fe738f59591bdc57d5363569a468f2e72f83386bea2c3500c8c09;10025495;PO Box 100603;Birmingham;US;AL;Southern;Domestic
7283c93821ea300ec1eb0b04b4a90f31596ba049903d1cb9e6911cc801d650d8;10020492;"";"";"";"";International;International
f32611427b56fe4359bb91ee48f430b16578fa894c33f497b538a222ac370c37;10009669;Não informado;Não informado;UK;Não informado;International;International
cc77929c82bcc84d45b33ecd95d24ff25cdd27b34d3f02d30caa877109465f55;10020672;Brobekkveien 105;N-0598 Oslo;IR;Não informado;International;International
6dc6d25ee0fc273b67562f42d761defead2b513275839557f497a6253861758f;10025241;RU-3 Hamamatsu Nishi;Hamamatsu City;AU;Não informado;International;International
56fc66668203dc815f3a89091f45225b55fd407cf277c6c312b2146f542e134c;10023241;7700 Counts Massie Road;North Little Rock;US;AR;Southern;Domestic
6413994f476d46bc8982623e9ff8d416fdc68102877bf5128eaf05ed0205b6d4;10025284;19745 Meekland Avenue;Hayward;US;CA;Western;Domestic
4b2f86e70227a1bc493fc995b2ab540b22a3fb9fa689912bcc8b7ae4bfe84a3c;10017553;PO Box 660;Ottawa;US;KS;Central;Domestic
75a221eda4e3bcf00b97a9f73aec5a221e705d23a632d0ebbb78144f555488a2;10018885;128 So. 2nd Avenue;Pocatello;US;ID;Western;Domestic
61f6ffc84986cba3ff57eb74e95ad34f90ad6e449cf277e511c75cd3506f96e6;10015325;"";"";"";"";International;International
59d03d91566b68aa899380849dd11b565a60acb988cbd7a8c4b331b3d3d907b7;10021472;9475 192 Street;Surrey;CA;BC;Canada;International
b03c61621ec8f42079bc032ce3099715e72999d7aaeae99bb6412e59a18db6f1;10021411;"";"";"";"";International;International
faae990d2bbd20ca397220e14d0a163270dc9acd758c792d45e5d892c25cde39;10009356;Global Motorsport Parts Inc;Cape Girardeau;US;MO;Central;Domestic
bdaffa6a6c31cf2b33336d65c15d303d3ecc02392e4215e65fbf626ef9451ad0;10026334;"";"";"";"";International;International
2db289bc1966fff6b53cb754dd4c1568df6d2e7a0173b311413e18952ae59400;10012885;"";"";"";"";International;International
0d063da1aa4078cc2c6da108d51a6ea8868b14d3d0d76b0ba404b3ffb02d8770;10002155;"";"";"";"";International;International
8cf174d1b49790bbf7f9d5ec6fd2dc23168b62423f350983539886df5a3d997a;10007566;2106 South Riverside Road;St Joseph;US;MO;Central;Domestic
23bc62a686a8d37983a3f24141de61a2c9be74271f94071e2abec94e1e2441f1;10020914;PO Box 547;Calhoun;US;LA;Southern;Domestic
0b274b8e0fd6e205d7dc2270fcc34bf24d96d65d6196b86e037dd6e81f770ac9;10018867;2400 R E O Drive;Flint;US;MI;Central;Domestic
2b8b8351444282af6ff310a1b89d8b58f77648f8b2e879799703030676698168;10020364;"";"";"";"";International;International
d50258f2fd2c756adacb9d8098e9374a8529aa1d14d2569130292a72ab81859e;10015886;"";"";"";"";International;International
542eba1a56261baaafe2d3ef10cf938cebd6ef7db8e14c48ad8670dc0e3ffbe6;10021986;S&PD-Special Accounts Sales;Livonia;US;MI;Central;Domestic
ef5d931a2c9b72ff0bfe3aa2247442d7f671446b2e8d684c4baacfe04503f230;10009662;610 Garfield Avenue;West Point;US;PA;Northeast;Domestic
547977c882752ef0cb3b5d7637f26ffdce30151a9f9e90eb45b711257c008b31;10024550;PO Box 2017;Appleton;US;WI;Central;Domestic
9ee2dc1bdd35ad22a3d45d1117ac7cb887e0209f46bbba41f51e2f4d080e5cea;10012226;Worldwide Purchasing;Troy;US;MI;Central;Domestic
a8663c301b9209b8a9a3198a77f55f789fc39816238f61b8d78afec6e60fecdb;10009647;3248 Auburn Boulevard;Sacramento;US;CA;Western;Domestic
447dd08a7d9e0c88aa686f24466f7e2bfcce7d3f3a678557d254aba8ba57eeee;10021804;"";"";"";"";International;International
b4b210d0d8fff9783470626af5aee1d26fea2e923fdca492ddbc223e288841d7;10022166;"";"";"";"";International;International
d67143dd6705e59af9f12d7401a29584cfe9c83543d1566c37bfa2134c28d68a;10022750;8300 Lane Drive;Watervliet;US;MI;Central;Domestic
f19808148ad9d7523529627c39ad712914d1db5d9d183cdd9258f1be1360914c;10013574;"";"";"";"";International;International
e19aa85801954f5d7fe7eb27f6e23a53a8cbb78cf792c616dd134288ffa533bf;10017036;580 Yankee Doodle Rd Ste 1200;Eagan;US;MN;Central;Domestic
c57b5034260287c4a5a5790197443bdd676f6644bb78193ed965265226b5a7fb;10020931;PO Box 549;Bozeman;US;MT;Western;Domestic
53a4c5116207034b44d0ef843fca67db9876923676cc875a21cdeecc1ff299d4;10025769;850 Commerce Street;Redding;US;CA;Western;Domestic
d9a639c1d726c3cce622dc11ac340c55df9b30076229cf161b7a9f44e74b3945;10009907;PO Box 2143;Elizabethtown;US;KY;Southern;Domestic
bfcd01fcb28b92d199487d40f4b81cb28a2f66ab34a8dd882365dcd4f38b3df8;10026861;2280 South State Street;Salt Lake City;US;UT;Western;Domestic
51fe27cd3c775a7b52445e2f977d5be9b48835714be3eb4f106d546be482cdc6;10022687;5325 Still Creek Road;Burnaby;CA;BC;Canada;International
8011aebb49526caacb1a7784e06046e6d8af8d03787a8d78b73571c8c968bf70;10023760;60 Lafayette Road;North Hampton;US;NH;Northeast;Domestic
1dcd48cccf0b05ca48d1740904369bdb135bccd158cba8bc1023abe75bbe4eb9;10025243;PO Box 5308;Longview;US;TX;Southern;Domestic
8986b7210044ae69a44c27558e52f5b79f909d380b11a8170d342f8553f0ee3c;10002520;"";"";"";"";International;International
30a5f2cca9d2c085a94b36b8d914e7fd22dfd9061788172e8f236eda98a67516;10011724;300 Ingersoll Street;Ingersoll;CA;ON;Canada;International
5df56633e507b0fec5f5aecb357fbfa1d487aca314765916aa717d09f61af79b;10014546;Division of Western Truck Sales Inc;Phoenix;US;AZ;Western;Domestic
ecfd6c30bd3209c39c71a42d217b2f6687f36ae96d814508757150bafd368aa5;10020448;1155 Mackay Street;Regina;CA;SK;Canada;International
e4b08af96e2cc9f419f30fc42af3b750a4ec78204f02d3c7da7a00d115a97d8b;10022732;PO Box 900;Lake Hamilton;US;FL;Southern;Domestic
fae65ce5d54e745e8ae9fd3091b28103787842f1ab58f2b720218c642e0c076f;10016303;60 Depot Street;Buffalo;US;NY;Northeast;Domestic
d473f574f4b296ac45898c58b499d332f14e924f31b14974c67cf71b113150a9;10027575;10400 Plano Road;Dallas;US;TX;Southern;Domestic
63c9f8ac9d4b7b94cfc41afedf25ed46100567add2a34bea14c4b3213e08e0eb;10018644;Attention  Accounts Payable Department;Overland Park;US;KS;Central;Domestic
10b880a25384672e099cd13f18a496d908028a9ee09fc36739f1cc7b0ff0275f;10019665;7940 New Jersey Avenue;Hammond;US;IN;Central;Domestic
1d1690b45d5ab32ff1dea3a389b5a3e0821d9369c8fd83cbe19566d65aace195;10021203;Los Angeles PDC #14;Costa Mesa;US;CA;Western;Domestic
ae5ee7753ed13054b9f68cb54efa7b1e5e04c0d1e6316509b897917011f89f27;10025299;6260 - Place Northcrest Suite 305;Montreal;CA;QU;Canada;International
e178b52a065267947c80ba0b31975726381a209d6b04c9e5dcec31c19eac9ab7;10012761;Av 6A Norte 25 N 43;Cali;UK;Não informado;International;International
1ed8013fc9a6cf54e2033eb3078c04d043e604ecc6b2f93fde3408f5dcfefa9f;10021459;Memphis PDC #19;Olive Branch;US;MS;Southern;Domestic
739a81a1424fe4e798368ddb3dd7a7af1aff0b1577ecb64cbebb1822ef5fde88;10023244;PO Box 899;Cleveland;US;MS;Southern;Domestic
ea791b66eeac901726d3bb006efa3f93926fbc86e0117cbe9ee04a88497b32e7;10024924;"";"";"";"";International;International
b2b2a17657d62da69374b40fd24d52d8cea897436d43d3d41243e5508fb3b17b;10014533;Chicago PDC #22;Aurora;US;IL;Central;Domestic
df3a468ed8935596e3d21bb9f357d4e93f10ac3d0bb15b9fe15f1a686825718d;10026843;100 East Inyo;Tulare;US;CA;Western;Domestic
bf75ef46d6df30996b8175aff6fdb93baa96daf476bc765818468f82a50b6b07;10004245;4747 N Channel Ave;Portland;US;OR;Western;Domestic
26688919eb2b020d613a3c189c1657f2434316dcce38dcdcaa5d070296945a42;10009643;4103 Holiday Drive;Flint;US;MI;Central;Domestic
037ebe87ed4fe4f1b2bbd22302d0c6d372cf0c19ad8300f2b7fa75ff099b32ac;10024743;907 Cole Street;Enumclaw;US;WA;Western;Domestic
9bc92a78f1809d651de21cb9ab5d0bfed5101a89eea5c5300c059f9987820836;10015275;1601 East 29th Street;Marshfield;US;WI;Central;Domestic
e3ffed781b2baf5a65aee121660bfd58a3323ad772d81ef991683b8bac1a9fd4;10004516;Vehicle Operations;Lighthorne Warwick;UK;Não informado;International;International
66f9045f81f8e44a658a66c39f31cf7c26904ad365eabadcc1ba4bc48ba16009;10013188;PO Box 36409;Charlotte;US;NC;Southern;Domestic
6bcdb3998dcd3cec80a39992beafd7f946c44381c3a6267a5d590bd8accfde77;10000471;Al Thalia Street;Jeddah;AU;Não informado;International;International
6f3570ec3c8154430e24e7f08f308d8ec96b2703cb4673c5ce1e0336084f4b79;10008593;PO Box 99;Highland;US;IL;Central;Domestic
34296a01a7e2ac1dda7e6b842ff9e0b9a636e4f17d00d8dcd88d0c09368977a6;10023022;18412 96 Avenue;Surrey;CA;BC;Canada;International
14110e208aa1762d12b010f9d26acc111c0139b0e75d820aa71032fc26345fb2;10025239;Não informado;Não informado;UK;Não informado;International;International
3ee25515d8bd4636cc19010f5115fb77217f3ed08bdc41c54456d866ebbb5804;10024246;580 Waterman Avenue;East Providence;US;RI;Northeast;Domestic
af054de7497dc10ea7dda7ebebbdc1a2cbc441070ff4f5abec6f10ceac8c41f3;10019514;"";"";"";"";International;International
6e2d81ae384e488a62cfbfaabc9ae3c9dbe409b4945ea72d7dc65a10a38b540e;10024930;"";"";"";"";International;International
4fc9555bf8b9463f4873fa69572101977b7d24f32a7f8bd0b234a6b92d1dd379;10022490;Attention  Accounts Payable Department;Overland Park;US;KS;Central;Domestic
4954a11289941a280956ea3300ac366e43b3d493d52a9f23cb07f60f75f3d56d;10009623;2125 Whitney Avenue;Gretna;US;LA;Southern;Domestic
95334b0b06d314bbb8869f49e0eed99807caeb4f3e4c3aca96f7eb1edf1e675c;10024255;Division Of Pontiac Michigan;Pontiac;US;MI;Central;Domestic
22fffbd83643d0a616e39da6c60c43963ae69e5d7965ccc2f7a600a51ca55aa2;10008596;PO Box 578;Springhill;US;LA;Southern;Domestic
3e3bdc448b3fca11d4573ff4c16b5cef4c1b7fe187164aae9b90fdbba8fb71e5;10020864;"";"";"";"";International;International
25c0ac30fb8587927f5cef54d12e190b1b2953171421ecf70563784cc01a8839;10027340;63 Bridge Street;Salem;US;MA;Northeast;Domestic
08f0acc7f6328e558f81db65333da55c92cee5c15a1b9498af370810490b82af;10010865;"";"";"";"";International;International
091c2793440a098533b572428046826c915e753216e539358eb1d01074fdf5ff;10019400;861 West US Highway 30;Valparaiso;US;IN;Central;Domestic
bd324f9ead9561a07f642c1c397e44e9e5fbdf4745864a1f524de8ce5c921902;10014779;PO Box 206;Fairview;US;NJ;Northeast;Domestic
434597f0e9d2d7e20d0f457bd33a018080cd7a346f1f57311ea894867c4422c3;10009885;PO Box 7100;Winnipeg;CA;MB;Canada;International
fd6135cddaedc35b2a5d3fdce3be3d45d2a81eb9378582559c5045e4b38c555b;10025298;1111 Finch Avenue West;Toronto;CA;ON;Canada;International
8706483877dc12141e57158b56c908955fe53ee371a82fd34258f97520121f6d;10006805;1801 NW 82nd Ave;Miami;US;FL;Southern;Domestic
49fff33f3576ccabf496ce0fc1ab9aedc48428653b04e8890e0aa9d11e91bfe7;10025287;PO Box 366;Brookfield;US;WI;Central;Domestic
5a0f5fb93b3b8f3424bb1d464f250651b2d2312ad85c563a6d90c28aafb43814;10023023;600 South Brooks Avenue;Thief River Falls;US;MN;Central;Domestic
ee4141f12240045af2ad714688e86156b1f1c4dd38e6d96cb2654e6c00d38532;10022423;12110 Best Place;Cincinnati;US;OH;Central;Domestic
c4dc0307b17523857541a90036872a747c49c597c98d6aae803ec2fd98a3df55;10016113;"";"";"";"";International;International
e59d9eba2c62c301a44c7a5e867e0aa26081fc1bee692acd3a30bece1aad700a;10022434;PO Box 958;Placentia;US;CA;Western;Domestic
2bf5df8262a766f2cadc32ba7814218ca3a6741bf3b4c0087070ba7cf4f744b3;10019388;1101 N College Avenue;Ft Collins;US;CO;Western;Domestic
85cc0c2bf6a977a0fe963f23647360b2f31bc9386848a92df11c7e59c473ab93;10020390;16241 South Us 27;Lansing;US;MI;Central;Domestic
d7b9047abd7889b5e4b144db983cebf22e1678ce99fdc85c33a642b3de08d75c;10002144;"";"";"";"";International;International
154298217a3c4e990b617c5bc462d508222fc918524f2dcfd794067911b96813;10011018;"";"";"";"";International;International
1e89d722af74392c2a2a6ed7f8f18e893c617c26a7e527b2795c76019dd2c171;10002501;Não informado;Não informado;UK;Não informado;International;International
73b4a1386e09fd2dcc5c7164865cf85c320c876e09d7c2ac47ce7c3e58a57f37;10007591;Hiekkakiventie 7;FIN 00710;UK;Não informado;International;International
caeaa49dce3db25c180462758231f3bd0983345f48885f9335f42aa80c41c328;10025034;395 Smitty Way;Corona;US;CA;Western;Domestic
aa50c15f0aca292b8cd9cac27468fda0e1d2457536b25f3614684a42b4a3cee6;10011623;"";"";"";"";International;International
96b600a6d95371486a7877411db188ab8cf93c40c70429c9d4c6d767aaa26b86;10018129;Rue Champion;ZI 1 Ducos;IR;Não informado;International;International
63445a40ce5cd0f348c5fe8f639d2355f7456905db4624a93c0acf58115a1221;10021380;"";"";"";"";International;International
7fd10c16ad8f39dfb9b53e84308cfd8034374af449901c8b7b8f681a89a782e1;10021485;FOB: Clackamas;Hamel;US;MN;Central;Domestic
91a10e78670ff9d1750f1c607c961afb23160aa6faf48c82d8ba9e0b5b95517f;10025791;PO Box 667;Prineville;US;OR;Western;Domestic
0fb069bb067c013a12a2e4fd6d6496a67570631f5382a03f2a3ca064f43da82a;10019105;6029 Mechanicsville Pike;Mechanicsville;US;VA;Northeast;Domestic
fe41e3f50f008252d7149b9bd693eee434892766318fd8804ce6f7cc1e993c7e;10024524;PO Box 511;New Hampton;US;IA;Central;Domestic
dc7b3f783dbb1cdd618247427432ce6c72e32c65823cf716790eda289be36607;10006917;"";"";"";"";International;International
d947303a2e4a958da96329e89baa37b113100368ea6bda8ee359ca3f494be5f9;10021111;"";"";"";"";International;International
2af2ae0fd750015fd7f2cb7ee098b56bdf8672307877163599377ba2b7e154f3;10020982;"";"";"";"";International;International
13cc7c0bd9ac8c605b6b69d026aa922e6aec81813f6ed24f1f7283014254b94d;10000480;Attention: Accounts Payable;Phoenix;US;AZ;Western;Domestic
7fc61745cd5dc6a34cf9cd563278bf1384a2701553dd3d179675fe6e21ba9ce8;10010884;170 Industrial Boulevard;Boucherville;CA;QU;Canada;International
aad6b4476a35e9003dcc76b7ed320a91e48195a381697e6f1072c27ab0da6c02;10024248;9440 North Whitaker Road;Portland;US;OR;Western;Domestic
6c398a322b15493d81046c19411f05c868f29053adfb0e5b63303053b7752774;10026299;334 North Hall Street;Dallas;US;TX;Southern;Domestic
d083c1a311606d741a421b667b181550603cff1397b2af3e4852c8164d061389;10012161;"";"";"";"";International;International
94cde2d68abc380620ae3a8a056da3c275ca8366edf8cfe1873c101267ea8385;10013238;PO Box 5222;Janesville;US;WI;Central;Domestic
5a9b11bcce5c85e2b135f7ae4cf9584489a3a97b057e3046ca57162f9b31af27;10010906;5702 Industry Lane Unit B1 & 2;Frederick;US;MD;Northeast;Domestic
a97ad1962ba4ab4281f31a3ef056fb663768f685ecf594bf60b7015c07232206;10021470;815 Hellam Street;Wrightsville;US;PA;Northeast;Domestic
1e865cd7867a29da7bc711336dbe8a76506ea887bcb3fa8b70d2a2f2a8f30938;10025249;7221 Highway 64;Memphis;US;TN;Southern;Domestic
af694b34570ae1e2295948ad79b94582a87cb86f00e929de817d596d85877398;10020247;"";"";"";"";International;International
43f6c61c477ba2782e06fdb97976ec0b6b5e4c785a9065c17b863fdcc62dfb08;10020266;"";"";"";"";International;International
f15edd10b12b751a2707691705cd9225216f0f623ba0c2d374886be03a4156d4;10026868;Aut Reg Del Centro Valencia;Valencia;UK;Não informado;International;International
612360e679d99f3916faba69bc003b89df91388f8f8de10be370b7312c5a857d;10000472;8000 Haskell Avenue;Van Nuys;US;CA;Western;Domestic
df82dc57907c46b52f0dbedc8f8362649b094b70122d5386c2fc9ed7cfcfafc5;10026268;Unit 403 - 17665 - 66A Avenue;Surrey;CA;BC;Canada;International
f807fcf2307f491369d9dd3268dc86cf7160e1c506fe4e6f6438717f5db273f9;10021494;"";"";"";"";International;International
332f77b1796ee770026c3def9c1e91995435c86886b24432267513aa86b813f9;10022456;3340 A Sunrise Boulevard;Rancho Cordova;US;CA;Western;Domestic
f49f6d4c02941d3fe171b663972d0c877199aec51c3bde16317a0947ea1058ad;10013871;"";"";"";"";International;International
744f9d814a3e9123c49a191941d7592433a73186234286b61f970a47151d5fd7;10025062;731 North Beford Road;Bedford Hills;US;NY;Northeast;Domestic
f614a2bbf03ac47ede03717d1c716db0525a12808016ced796383b5369297d3a;10011089;"";"";"";"";International;International
29da086066075422aca7510c137bc83892fccf7b2b623a31188d9419bc419fc9;10021231;PO Box 460;Middlebury;US;IN;Central;Domestic
c8bb1ab840b596ba89559d78bcb1b56813415204fa34575b3aed66125734fb15;10024022;9950 Jeronimo Road;Irvine;US;CA;Western;Domestic
03d3cc6c44a7f0a9d950bdd4b302cf95e6327235afd9a80a93e69d775a4fe3f8;10010923;231 Yangjae Dong;Seocho-GU;AU;Não informado;International;International
eb5fb11cf3be36e498511a94119fc641a5425d8d434fb2d3286c94639701b86d;10010882;"";"";"";"";International;International
db38feb0b60d068b2dc500fcaaa09f05c0fdc35d9ec3d8ccb68da5028fe74a3a;10025919;801 West Artesia Boulevard;Compton;US;CA;Western;Domestic
80f67578bf8efbd6ddb4f7f2d775d39748a6a845766fcf0bc4293ab3cbcae10c;10022431;845 Third Street;Vinton;US;VA;Northeast;Domestic
74528ebc3af28b0296a7631d4ca0eecb3b7ab6864322e5150d473a0b4075857b;10023785;Defense Const. Supply Center;Columbus;US;OH;Central;Domestic
1533393af1f1b3968efa269186f3c5b76ec9443ca6dcca4621433d07e3593f0e;10011345;"";"";"";"";International;International
fb5b936e160239ceb49d0689fd00f5a10015c1162d07ab5d383d12215b2e1b7b;10005922;"";"";"";"";International;International
16f053cda3e96be1133de64c9b2febfa937e07e5d3d9f97fe1678352bcc0f5ca;10020446;Worldwide Purchasing;Pontiac;US;MI;Central;Domestic
2e23595982b7304442aead7235d5a0a0bf4f9f068f0a19c87d8c4e4091f87c87;10018871;Field Accounting Department;Livonia;US;MI;Central;Domestic
3b55f89627a5d814ca88ad9ce61ece965f75a58976e75c3e710c6557f5412039;10004207;"";"";"";"";International;International
6266ef545eb2ea64a11a141d616527d8c7b6b477d8efff76809f1a1eb60a61f0;10023703;DUMEN SOK. No:3 D.9;Istanbul;AU;Não informado;International;International
0124ed366e0dc6d81841904a121911b43572ac2f3fed884a0c8dc616deeaf925;10014540;Avda Bdo O'Higgins;1980 Santiago;UK;Não informado;International;International
dead0c2f0a26811670b5e2c4174937512a51223ff809699432e0f95c3d51d962;10023778;PO Box 70;Hillsboro;US;OR;Western;Domestic
cb463145457fe2517ac2bd4a1129d8a299d68252003fe6ba279f97b7e7d17e30;10020393;2649 East Mulberry Street;Fort Collins;US;CO;Western;Domestic
5af9f99974a046533a67985a0a920301b5005ba76b3a4863c92ba2d2e1b88e55;10021283;"";"";"";"";International;International
6456ef3514778cd15c8ddc399eb0917a457a6f3613d420d6d103892427023565;10017576;PO Box 10455;New Orleans;US;LA;Southern;Domestic
ac285f5c99ed12b6d6d16be784195cbbec89962579e4547321979aebc79da9ad;10010855;"";"";"";"";International;International
de8e4f84f29ee8e21a020ddeb4d4fba70b3f1c9d5a99d2ec8cf20dc79ae03113;10002137;"";"";"";"";International;International
c5a6f62ca819c84efebc66a3b0628cef778eeff5140f2af19dafb144fb5e1293;10019410;6710 76 Avenue;Edmonton;CA;AB;Canada;International
c3bb97b54cb5f36ab5ee54f6af715479f63fb14eaf34cb64002d3192e29970ff;10021175;PO Box 5418;Johnson City;US;TN;Southern;Domestic
592a81c12379378336e964ec8729fe7cfc0b3d5bdfcba654ea8dc16240ef86d2;10023511;Bellsingel 2 1119NV;Schiphol-Rijk;IR;Não informado;International;International
dbe24fd890cd6eb46f0f8e29b5adc8c80358230439b58c873d2cd6f9e044387e;10000458;PO Box 840;Saginaw;US;MI;Central;Domestic
ab7bdd75cb3538c4f4cf32543a5dde6f31abb5e565200244d367eb7aa6591d4f;10012234;PO Box 4658;Hayward;US;CA;Western;Domestic
38ba62f8e7c7f9f2f382780ddc5c5381b63dadf8b18e149a2ca7a229d9be4530;10021297;"";"";"";"";International;International
28a245b26b9e3f67dbcfbd3e09bc6e3a75ecd09bb048cb881fb86bccdbf4b3ec;10019194;"";"";"";"";International;International
9f602c6f3ca92e38d90c1a5a94b5504d75f1612db83576b44ebc5a28a586a715;10007121;5711 West 36th Street;St Louis Park;US;MN;Central;Domestic
47062cef710951483fc904a556a4aaf0e0607446d6bb103e371a9dafaff27d61;10026006;308 53 Avenue SE;Calgary;CA;AB;Canada;International
a6f1be90f1d0e0b350b514ddc9023624bab8a97959d4674bd1d4516090797e17;10002128;"";"";"";"";International;International
a8d6ad0ea1a50e35be1bd03419e7580b7479cba0b0a50919c0f7f1f0fa5836af;10021240;"";"";"";"";International;International
9c441049fc0df844230989ccdf7ead9f661a9b6a183cbd3f62eaa6fe8192dc30;10018580;PO Box 790;Beaumont;US;TX;Southern;Domestic
ce5572b26f134597a777e2fbca9a66457a3c0c5f48ce0f1a3ab75ec8cc4736d3;10011198;703 Waverly Street;Framingham;US;MA;Northeast;Domestic
d134f5fb9a34bbf290655e42d0dea952232e52ce0782b3c43e70ca5fac9a5085;10002114;"";"";"";"";International;International
0994e8f083aa84cc5171e75d60c2920587482a5ed61ca08212d518f2ca0cd962;10010935;877 1st Avenue NW;Sioux Center;US;IA;Central;Domestic
53ac015a1936d6278e6c591ae386a4210743aea4c39b5c0e408801b879f40f92;10025238;4567 Federal Boulevard;San Diego;US;CA;Western;Domestic
66883fe277c7f713f9965f5ca11e1ae94e9890d4caae2ecc0d0c45823d621dd2;10006983;"";"";"";"";International;International
a99fec2bdfbfa7ac09f60fd7eaa626e53b3a916e94d76166282458c1b676f9b2;10008638;301 Iddings Street;Milesburg;US;PA;Northeast;Domestic
e387be6513a4a9876b4ca13da9217479d36674a431932c7a38539c3f322cd15b;10013670;"";"";"";"";International;International
4d936ab24b7fa34803b2cd065af63642190355160d0dc205ccd5203a5973cd6f;10026839;1201 Sycamore Avenue;Greenwood;US;MS;Southern;Domestic
faa625c249dc85e069693340d450151d0eac6ff4d9a30a3d4f2d90836b1df001;10012235;PO Box 1005;Winnipeg;CA;MB;Canada;International
e36d3404edf51c7dd868191c94cb59310699eabf6c6efeb1776d0b7e9a14df81;10009606;PO Box 105;Kilsyth;UK;Não informado;International;International
c8fa5f82e80d86e3586868219b88480b2ba8de0efe4c813c16566eec1f8de459;10025552;Order Processing Group;Southfield;US;MI;Central;Domestic
9bb3f3d16287d18b48f029f20d1b81dc662abffea572e92382ed160cb67f1f91;10025778;1143 W 2nd Street;Pomona;US;CA;Western;Domestic
2bcf0a764d9747bca79f57c0141ab8617c03a0c3daa1270764239c0f3b2a6c1d;10019109;Sacramento PDC #13;Sacramento;US;CA;Western;Domestic
17d983e059842a97be15b53eff0f1ac4cb6e9225b0bd6570dde664f3d3e0e5e8;10026438;"";"";"";"";International;International
436c620a3d5a1eeccf67f0423510296e7d1165f45e7dd949d397c28b572516df;10013426;"";"";"";"";International;International
8bf9186ea783a66dc8103eafb98225913ca0051570a136d250153104bde62744;10027370;General Pardinas 112 Bis;Madrid;UK;Não informado;International;International
9fedc77b67ff53f87aee7faaa05721ff7568d6bb64fada9e9f57c155ade0cdf1;10026560;Central Accounting Service;Dearborn;US;MI;Central;Domestic
e87b17f070ce03fbd666cb5c8421050394502915fcd5b08dc3e23bb54f75d54f;10003749;"";"";"";"";International;International
5a2cee2f807de89573d58b119af7484af0cb4cd791045b012a77497453b85b04;10016609;Unicity Distribution Systems;Winnepeg;CA;MB;Canada;International
ea394641f28d16a35c6676ff495fb255199e32e17c3168a78d11702a1ed5d7d8;10009633;Não informado;Não informado;UK;Não informado;International;International
a072bb46a2926067de6a9eb5eb4ff8b479efd613457dc2d167d4fba05c3c6348;10025549;PO Box 21;Shady Grove;US;PA;Northeast;Domestic
b21535d5d106250e3e9d3386ac9e9b2e9f187ab37d6ce417fbf66cd1cde651bc;10025025;2402 West Valley Highway North;Auburn;US;WA;Western;Domestic
4b4d6a58b46f41c45e2f2b740fd13e6ba973d6c812f520ab43397480eede2d0a;10002240;50 Mystic Avenue;Medford;US;MA;Northeast;Domestic
aeb4ffc1c3d17efc87650044fc6d2b1f3f5e6a99d93f4c4fd6e65c3cf9999bda;10024009;PO Box 582510;Tulsa;US;OK;Southern;Domestic
6f3a9c38f4a66a606ede70c4312cfaebaf113b1a3056eef5c03c9239d6db7007;10021305;"";"";"";"";International;International
a2d1b606b26d7c72d1c18810bd18da1e2064bce8224fcf03131056794f0bddb0;10011732;Não informado;Não informado;UK;Não informado;International;International
8beb302c532cadcfdd9fcab06c8eabdc81e9dda65f6223d5bdc7a4b23c7947a2;10023780;Av Eusebio Ayala 3321;Asuncion;UK;Não informado;International;International
136ab666de5f96695511cf7995ca9082986d4f09bed40ea5af304483747ca3c5;10027381;2649 R W Johnson Boulevard;Tumwater;US;WA;Western;Domestic
f903c484a2b9e066ae110061dff52d0b8734ed85e98f61928fe5a5effb4c9da8;10025247;390 Fountain Street;Pittsburgh;US;PA;Northeast;Domestic
7554d5fafea20de6ef27cb2da50faacd6941509af2b633b6b1b174306e45e69f;10025264;3545 South Richey Boulevard;Tuscon;US;AZ;Western;Domestic
c50a61295fd306e502f942b6bb7938a1189dab267d230236264493dcde712d58;10024260;PO Box 13056;Spokane;US;WA;Western;Domestic
57aff592faff082adeee7be128566ce833df7b52cf49b70a6b9d76aa1c944499;10005099;"";"";"";"";International;International
a80636da3d7ec7d235beab7321656f1c28122c74b5711ad25b8535b5556d7e92;10025560;125 Hampton Ct.;Cramerton;US;NC;Southern;Domestic
58c452b792b42998a09c94f0a8c0e758994edf5d8b2cbdaef6f2c91f54c3a866;10020388;7216 Ritchie Highway;Glen Burnie;US;MD;Northeast;Domestic
176f60bc20f7ad0a17c4460efac56212ce9e156e61e4f18ee247fff75b5ce80a;10014804;Attention: Ann Borden;Shreveport;US;LA;Southern;Domestic
f3b4aaf1ccade6dfe1a953dcc4f137bd68470242e1a7331881bc84f7c043bc54;10021668;13208 East 40 Highway;Independence;US;MO;Central;Domestic
35be31102cca7ea5a2326cd30296a9d2bab489571bca27c2daac0f348a81c479;10000456;8151 Wagner Road;Edmonton;CA;AB;Canada;International
6655bac4cf5d7e6c21c6f769c3670cf84d838db7e02e3a0cd8b14c5690c70112;10025039;9049 Tyler Blvd.;Mentor;US;OH;Central;Domestic
e0734f57dee887d75210a62ab6186cb0358f579bd62943bcc770b23839ed646f;10013765;5821 Hampton Avenue;St Louis;US;MO;Central;Domestic
fae40fb8fe65a851022c61fbe52299ea3b506359b3e9a11f7f2c656b220bab99;10001103;"";"";"";"";International;International
a0a1678acf0911a6e94f3888341ea48361e94c3ba0578375faa447d65f291faa;10007536;"";"";"";"";International;International
b246f0ddd02b318ae2d1cb35b2bbb32978d4b021605d3ee23e581e23524d0b3f;10013870;"";"";"";"";International;International
068bfdc34e453df60c25f9c3a0585a3a6999a037ded39b9d9a859813d770d56f;10022978;Não informado;Não informado;UK;Não informado;International;International
8abec4080f1ccd00dd25c14910771aea3af7459b8c53e333f07a8e3b5bd30fe1;10025033;226 North 13th;Billings;US;MT;Western;Domestic
f6079ae908e624778cfb11aab0de53b137ade7608e2bd62cd115e3db4cba0311;10020193;Não informado;Não informado;UK;Não informado;International;International
8c40ce87ad9fee38c12dfa46320c474a7a427b859ba13675ff2d244e30d60593;10005376;"";"";"";"";International;International
0e358c2f208216a412d83a14f84db2d43cf3169fad42912a23b40143b1e33d85;10000499;"";"";"";"";International;International
9124e8e20829e7776ce02db7e4f70bca1dc10be7e43ed6f9eddae8e11c652601;10013079;"";"";"";"";International;International
c80a0b6e2c7182794c0df09cffa4538ef663934319000df951a2ea07bbd334c4;10002709;PO Box 99;Albany;US;OR;Western;Domestic
dcf7c1b19b6346765b4e4c33e27663cad7ba844b3c03f62bc1a1a5e45ef072b3;10015789;PO Box 14311;Jeddah;AU;Não informado;International;International
31d4e2e51f6f667a304f2d47a3ded9308bbf0a0160bdb776642c3807ed653aeb;10022764;2610 NW 10th Street;Ocala;US;FL;Southern;Domestic
52b2ff24dc1cebeb4806e2acc9ba0756608631768400bc678bec3c93039a5be2;10002140;"";"";"";"";International;International
b94de515784cd2f3d24265f871f5d010091f3fd4413b57601d3fed0f06e7dde9;10019909;500 Airport Drive;Shawano;US;WI;Central;Domestic
86021eb53373d744a4766693ea2d98d7695c060a24539545e8e00ba1ad908b14;10017585;11811 West Silver Spring Drive;Milwaukie;US;WI;Central;Domestic
2ac94bf1aad275289ad96bd36a9516e9e7fd3963a9cdc2b826934c856a839ecb;10014471;2916-21st Street Northeast;Calgary;CA;AB;Canada;International
4193cd30a25df6e56829d322eb14d1a1f033f2f0dab3b5ab6717a2a69e134975;10024942;"";"";"";"";International;International
d42546089a97fbceb09f0ea9322ad8aee36410e613c3d04917b5db1d6967b200;10021911;PO Box 2187;Tupelo;US;MS;Southern;Domestic
d694795b360c8ce7994c4a6738d3fefe6576456cbefc509a844e266a0fbd332a;10012157;"";"";"";"";International;International
dc5e90118a0de6855a177ca3b7c64497c0d70950dc18ee07245e3d4702b365b5;10005688;"";"";"";"";International;International
6d869286be4d777442b6767fee53461501ce5ca263dedc040c9145b3b41d1c5c;10010974;13296 County Highway 00;Chippewa Falls;US;WI;Central;Domestic
044c46e0d470905bbe47b88aeb7746faf7989a6e7433b000ee7a68e016b6cc98;10020907;Não informado;Não informado;UK;Não informado;International;International
7a3983f2ff8be943c0bbaea65c8a23ed14abf491b8869fc2e78f15d7f2666be0;10011360;"";"";"";"";International;International
edc0ff0d85bcac7395ba5eebce834ce567333b091359a56808ba160722887113;10008134;23308 Airpark Drive;Petersburg;US;VA;Northeast;Domestic
89ef7504d4284fbd1d6df3c5064858d960d81d12bc8cb6e29c675444d74d3a50;10025515;3650 Bay Street;Jackson;US;MS;Southern;Domestic
52ecdd46d21dfb002493184c6dbc85d29ba25782c48f7bdcdc927dbe85a28dd4;10002142;"";"";"";"";International;International
cb0ec3cc471d5e3e1ca9a31e5e60e4aa02a553e5d773598cc245385e9b510099;10022240;1665 Shawson Drive;Mississauga;CA;ON;Canada;International
8110187fc80cf68bb94480455863305a2f84845843ddc4f4da4804e87fb60c19;10022183;1760 C Airport Road;Breckenridge;US;CO;Western;Domestic
05168653775ef3cf64e87c235b2f8be4e1ad3f2a7ab40704723f7b64256805b3;10026355;1275 North 6 Mile Road;Casper;US;WY;Western;Domestic
1f32c2c40d4b238c48fed132f779a39398b9b8574b86b0ade98f927b4ac95146;10025051;1301 East 64th Avenue;Anchorage;US;AK;Western;Domestic
5924eb1a4c348b200eb1e680ebceeca0dbdf28e29332f564e86f04602b9b12ec;10013509;207 North Scott;Joliet;US;IL;Central;Domestic
3ddc5f8547d4cb1d36d44c77f05fe359df28318fa419339f49deb7bd13ff87f3;10020332;"";"";"";"";International;International
98969e686b2164a058e761b6b5ba46fe1e8da1a31711f788b41a8fd6fd543ed7;10021107;"";"";"";"";International;International
eb19f40db960c0b10d81648977353252a0fe8c82320259b0d55cd9c1544386a1;10021300;"";"";"";"";International;International
9e75628e74cbbfd9d58854d877553c5ce2a22fca41b4ac372baeee1e8c625ad5;10005861;"";"";"";"";International;International
8c95207567e6650f393aab67f530340cef9cfb79349c72875ff33c559c3d8e35;10009697;4455 Dardanelle Drive;Orlando;US;FL;Southern;Domestic
2abad65b01369c3d3a7434951d863ad09f43fbdc29bf4b39ec765536222269ae;10021286;"";"";"";"";International;International
99842ddce161bda78037b323f4345d54507d041f03189815b0a0362f112a6ccf;10020515;"";"";"";"";International;International
538998ff83327358a046db36c4473f85e5e50c531347b1cf778a2794e41de441;10025418;"";"";"";"";International;International
85bcdd0235837b07eefa52f1b162fe526e7738e7c8d5a56291828638acd135d0;10015824;PO Box 7005;South Bend;US;IN;Central;Domestic
154cd4e2568975b52350d3e3484b617bd3429a8141a6d1afc05a21287058dc03;10020181;Am Schwimmbad 8;D 95326 Kulmbach;UK;Não informado;International;International
1ec0620593ccd80807294aeb3716df4834f3b8c766106f77dc6940109ba82cd0;10025291;217 West 3rd Street;Dover;US;OH;Central;Domestic
138563dbc03dfe945301530b8acd42c706c1da7a28aa980655c03e22f8f1e49c;10017307;10401 Boul Parkway;Anjou;CA;QU;Canada;International
9bf908c4b6fd62b2047a9e391d12d9837bd80d69f406bcfc30c445c23f073a45;10023759;106 B David Green Road;Birmingham;US;AL;Southern;Domestic
53fa22557d0fd48ca4e90930cc34a448aa962807fc4c5bb7da51277dc311da67;10012158;"";"";"";"";International;International
679d12caf6a35f2c0c80a5b8693177d168f8a01c94d06924ca179dd601e4eca2;10015783;Attention: Anna Markert;Philadelphia;US;PA;Northeast;Domestic
ed55e025078987814145dc4ebb547fd685a7dbf09cfcf8bc0987ad7830978d61;10010912;PO Box 849;Fort Smith;US;AR;Southern;Domestic
926125bc6573778135f1e49429ec553ac183df97d2ef98e046aae7503552bd78;10021239;"";"";"";"";International;International
6f712455fa866337125f7cf4b3115e8805b5263f5fc2d94db59e08ad9f8e95dd;10000466;3213 Orange Grove Avenue;North Highlands;US;CA;Western;Domestic
fe919c888eb86f927146c7a088430a807b0e03b3478c1e0e8a209408c54bc0d9;10023447;Attention:  Accounts Payable;Tulsa;US;OK;Southern;Domestic
5278e1d1f088ae26442ffb5f398c1054e1a4040201822c9949b4d848129973bb;10024003;Attention:  Accounts Payable;Benicia;US;CA;Western;Domestic
cd6eadce77364b05db09e7c769eea4f06ce24333a9b0aefee5bab122bf148ce7;10012305;"";"";"";"";International;International
b6f922f15e62838aaab30239cfedb44ade52c471ad76b5d5f005f62cb21c7306;10023964;"";"";"";"";International;International
ff1d51660ea01dc03d0537f786c4a8ce09a1a558cf191e368037f5fd4d46550e;10025571;PO Box 3283;Des Moines;US;IA;Central;Domestic
624aae1bef4a1a034ee7b5b3cde2fdbc0a01ad5dbe4db9a24a03ca65ec54d5ff;10009676;167 East Kalamazoo Avenue;Kalamazoo;US;MI;Central;Domestic
7b4f72475943a8b9a97cd7dea95ea17aa99d722143df6749e8b69a251b49d09e;10020663;540 South Rock Boulevard;Sparks;US;NV;Western;Domestic
29aad649bc0dc5d3137f9116a795cfee369905675825b7e2d565632cc58a3df4;10014469;Accounting Department Service & Parts;Livonia;US;MI;Central;Domestic
16abb31d98f9d38d7fc8fd66364ec8aaa45f1344a798ac8a119f6d5882cddca2;10002154;"";"";"";"";International;International
1f65065ec6682f0b36033f6da46dc0241311710e7e175bcc2902a7ad84ae5d97;10013039;"";"";"";"";International;International
4ef5d0440c4759795a485d7ddf7c289f084f221dda5815a39f5957c0f56e73b4;10009863;PO Box 065;Beijing 100088;UK;Não informado;International;International
a1574991462db41838fc7d8d7058e345e3c581d4658182ce54857c85f06b9f0b;10013332;"";"";"";"";International;International
b886d1453248b10cf97635d808396e3e53c2c52707ccdc696f27c3ceff94953c;10026023;"";"";"";"";International;International
b0b1d13c8f49d1b86e4a3e376aef63f02f6ea43982ba6a549fb9eef79306c551;10009642;812 Draper Avenue;Joliet;US;IL;Central;Domestic
81c7437c2f32266858e60f0038d5665445dadfb0eda825f407b9270e819b48ee;10017638;Advance Auto Parts;Roanoke;US;VA;Northeast;Domestic
c86f484b085a1f1a7d3f3f226354824c133d7bb161a0800ad4711da6e1af161f;10020662;Kelapa Gading Kirana;Jakarta Utara;AU;Não informado;International;International
fc7aff32e9676b6fdfd42cf6f7cbf007ae6ade58e455563b6c6f3338fcdc916a;10021223;Michigan Truck Plant;Wayne;US;MI;Central;Domestic
3239df2351a6299736e62a513305a2b9e511885dad8cad3112ce4f20c440f4e8;10002746;1200 North Ellis Street;Bensonville;US;IL;Central;Domestic
f9f096b3d4b62213fa5ae8a0fbb8e99163ccbcc78a5502aec0dce63ffcab2401;10007577;2621 State Route 57;Stewartsville;US;NJ;Northeast;Domestic
a05367dc77a321ccff595e8e0608133a8dd2405c33bc30fc3b90341bcc39ad8a;10000455;7392 Count Circle;Huntington Beach;US;CA;Western;Domestic
29340863493622ae7077194347282ec6c73a201502003c92caa9ca5160fbb84a;10021750;"";"";"";"";International;International
693683176ac458789f2444c2589c6e4ec9be124bebd28771a639bd38302bf259;10019150;Jacksonville PDC #21;Jacksonville;US;FL;Southern;Domestic
a205305e6805f7367e5ab29d79a10cc62c6302f8401f1abd451f45e59113eba9;10019682;PO Box 409;Lennox;US;SD;Central;Domestic
17151a58fe59c7e98962eae0ca1d2568735774379687ece1d2885544b00fef78;10025036;1920 East Front Street;Kansas City;US;MO;Central;Domestic
8962c385698d2421c7fcc88074492ebe60bc5d80cbbbc0e768c502f894c90e8a;10021418;10930 West 44th Avenue;Wheatridge;US;CO;Western;Domestic
ad4538309c952f50d7db087fdaa332142942a7f4fb5cb52a8f12c3f2539f7dc4;10021936;7779 Dixie Highway;Louisville;US;KY;Southern;Domestic
f9bad397de3ea6a510a4d28945d6244cdac2dfbb725f32bc03bd4bd5aeb8a6a7;10026348;PO Box 220;Mebane;US;NC;Southern;Domestic
94712816be8784d159fb37306c17873a982a7baea839075c2616339f4bf0571a;10016588;6025 Corridor Parkway;Schertz;US;TX;Southern;Domestic
a63832ae04c96585af767d365e6c9cf93a8893bbf1a45b29cd2ae179ef9386a7;10013232;PO Box 250825;Milwaukie;US;WI;Central;Domestic
e1fb72652a7321276039b48aad58457c793de17b21b248aa4f762ab6d96137a8;10026606;Central Accounting Service;Dearborn;US;MI;Central;Domestic
7a0edef7da401a38eb10a7aa64067a4533b1d1c3acc75762cda16ae989df019d;10025300;Attention: Paul Grady;West Sayville;US;NY;Northeast;Domestic
ef2eed47d08c8a9c7423ca71690efd2f5d53cf376d24a7a9ce16aed163911d42;10009639;Industriestrasse 17;Industriestrasse 17;UK;Não informado;International;International
9d996813fd108c50ec5394b32988b4661edfeaf3bb19e1d27c977d4c1a822146;10023495;"";"";"";"";International;International
138ba9e3055caacc9c368b6fead5eb8283d9e6ecb37ab8fbdd686fae92216838;10013572;"";"";"";"";International;International
68aab16941eaaad2132a5fc67b4bcb18ded19137e0a88bbd77ebb484d04110cc;10025359;"";"";"";"";International;International
05d2833abe45f8f59c2b7eac796eba310231e3ad70acae0a1678af32429ea425;10024541;Americas Body Company;Bedford;US;OH;Central;Domestic
d8a32b6eb3963f868371e1b23ea0946c5b171946cf3b6474279a0546c1490bbd;10025246;515 Oak Point Highway;Winnepeg;CA;MB;Canada;International
645f996ad742ff6ce2148b72612633679206de3f21a237f6fb8168d9d4326434;10024006;PO Box 57;Columbiana;US;OH;Central;Domestic
406f33155aaaee71548b2297642dde63c2f23e69a7649dc28219f9c0217be58b;10023235;7600 South Santa Fe;Houston;US;TX;Southern;Domestic
e4bca2b9d37d39d1c8b2003f45ed26f48b2ff8057e43ca5c3d59863b5fda7436;10021331;"";"";"";"";International;International
ab0b6a478ed8bbc698e49633bcce8aa574a4e7c595fe12ef87c8193cf4a0bc3d;10025289;3631 South Bagley Avenue;Fresno;US;CA;Western;Domestic
e2726b85245709c6d3ba15f65b67b5ccd7593b1c1f6b027a91556458f06de5c3;10007183;"";"";"";"";International;International
49b3955f163b58f802a027dc2939382d558411f5f1bf7aa47069cd19ac104d4d;10010897;PO Box 588;Whitehouse;US;TN;Southern;Domestic
d36a20dfe218aca31c29235391c29205c091bf379f8320c293b2292e44d6d87e;10005043;Paseo Colon Calles 34-36;San Jose;UK;Não informado;International;International
e3544f8ddda2c0edf3db65edc2039c06bbb802e150a8efd1d2a17c5d5957265d;10020306;"";"";"";"";International;International
cf34180b160733a844223f9db10e3db08f80e6c69e7b4e25b108717db7a9474d;10008602;209 Sanford Road (Route 109);Wells;US;ME;Northeast;Domestic
93ca18ccea811a9688f26dfd4fa76a6f46487f68972b8c5d1bba253e216fe098;10021222;14296 South Pony Express Road;Buffdale;US;UT;Western;Domestic
19e756d951f7e29f219eb40e9ed4377efb86418e4aeea877a65bd300fcc09be9;10016045;1051 West 7th Street;Monroe;US;WI;Central;Domestic
7ed4d71a531540fc9bb7509a1ce9a5237e91640eb39fa03ecd98c5d0e8f4d0bb;10025063;Private Mail Bag 53;Não informado;UK;Não informado;International;International
8ee8a1527e26699736e515c1367d52b29bef258d3ea928c9ca96ae3569975aa5;10025021;1151 W Main;Depere;US;WI;Central;Domestic
ab729a43c5a1f102f19ad19c7f5dd9633d5e6246d31dea32466dae87596c7eb2;10003882;"";"";"";"";International;International
bf28be12966b8d9fc22b9835c084483236592b4b71cb8b29d6425523aea26ac2;10015011;Svarvarvagen 14;SE-132 28 Saltsjo-Boo;AU;Não informado;International;International
fbe54a51d05004f7af8d318f901644db7b420aba3795dc2749576b9f4072bbcc;10011398;1942 W 11th Avenue;Eugene;US;OR;Western;Domestic
55827d8fcf90c6ef1d0a76fdf2918a2ad1dc2f3110fb02a6c5fab053a26125b4;10025285;2401 East 31st Street;Chattanooga;US;TN;Southern;Domestic
29cf35309c33eb1ac87a3bbb42e47a65f800c67c6b16ed519eaaf5b076bf71c0;10000497;"";"";"";"";International;International
f68941eee09e32f1da2e1e5ecc05e366002fea51f93f2f5b76e7fabddd7b4a19;10017054;7640 North Telegraph;Newport;US;MI;Central;Domestic
6ce6c360dc5e0420ad6e84e8dbc55b2ab32cfa8b0dde64ac92e86b32594e364d;10000462;6311 North Lindbergh Boulevard;Hazelwood;US;MO;Central;Domestic
98284de21cf03208ad6ed461be4e733cffda4713a9187496b3b40236ecec027f;10007122;22015 South I-35;Buda;US;TX;Southern;Domestic
6a573f1d2786feb05565377e3dcce688938dd7c63c54ee3144f3d0447b7103fb;10003720;2755 Kirila Boulevard;Hermitage;US;PA;Northeast;Domestic
bebd672f7b4465443d8ae85b59dc10f89767154815d49381260b9ce2f5f17579;10027560;3356 Kermit Highway;Odessa;US;TX;Southern;Domestic
43bcfac6e5ad31841f661fb856100ee44cdbb1bee9f5b178e4d6e6557cd1682a;10023783;PO Box 7647;Pine Bluff;US;AR;Southern;Domestic
4b486e2b61715457745e4439026107fd48685be7386fda56c62df758a4e023ba;10010914;Attention  Accounts Payable Department;Overland Park;US;KS;Central;Domestic
c32b2b6005b9b92d5fa934e6417e2a72508622c84a0157c772d4668350ce1da2;10014802;"";"";"";"";International;International
833c66712afab1d3fbaf4e3818ac0b31d194f230de51c83900aa880d485e58ec;10011870;"";"";"";"";International;International
cf4afa406673cef68b0635b909c72c6dbbbaffb8160346cc398d99c1af2c9c1a;10023221;Attention  Accounts Payable Department;Overland Park;US;KS;Central;Domestic
fc1f9f412d1ab73356a8661651d6abcf4bc2418a4703af409b42bb0884b9d4bc;10017290;Transversal 49 No. 102-00;Bogota;UK;Não informado;International;International
a7cde64179fed04a174692451dc9385dba67caaceac888b744d3b35e680fd8da;10009660;PO box 204658;Augusta;US;GA;Southern;Domestic
aee075d98775a4d8ac54110e5f212687638527a1a5f582cb6448c0f1c07991a1;10019469;"";"";"";"";International;International
584e2b3d6094a4cf29f337667f0bd9ff191b9d33c236e18d0f76f41ce3c8e1bb;10018623;17 Perry Road;Laurel;US;MS;Southern;Domestic
017a76bc34a69fb3a3ff1fcb59a512e98fa5bbc815ac21f788618514616a8a07;10002150;"";"";"";"";International;International
53efe7d999df872da82f0b040f4c5048fc75ca095ebf05690c8cda40850b4476;10019664;PO BOX 8808;MOLINE;US;IL;Central;Domestic
d8f165654780abaff29d78f7cf97aabf795ac42298d39cba4c6e8fd22c24d84f;10025086;"";"";"";"";International;International
0b4414add17690b1588f185e82efeb1e8ed72e2d8c2f53857f145576909e5a0a;10006846;1023 Kansas Avenue;Modesto;US;CA;Western;Domestic
b069c4d3515a06c1678696ed25888b0982b1f264d9be4af4fb3187924028c96c;10025305;4260 North Nevada Avenue;Colorado Springs;US;CO;Western;Domestic
b43bcf3fc087301609628012d99f03925957749a2b9e6c6e7c1f768909c9f371;10025737;"";"";"";"";International;International
3e0bb6c2c593f0f45cb125d85adf53e3d1756935136018c00a3c18b0ef821340;10025158;"";"";"";"";International;International
66eddaad6e0f0efa38d7479b0b9c5aea158928acc9a3fc74014294bf3ddabcdd;10018877;Dagher Plast Building 17;Beirut;AU;Não informado;International;International
df38fdcdbbd5da9e23c0e8b2230c3060a54d16747908106e63a9813736f0ed6d;10010886;522 Montana Avenue;Libby;US;MT;Western;Domestic
48e24febfc5ff91cc66985e6793bad883d046a1cdbf397041e475b0238f36fd3;10013011;Vagnhofda 23;112 Reyjavik;AU;Não informado;International;International
f86db8bbbb88a9debd5f47fd35fabaa722a9857b7c9bee0a0058c675d48ddcb1;10021996;8 N Industrial Park Road;Milton;US;PA;Northeast;Domestic
dc9c63fa3f5b21367312af32d804f3fa9b807a47a09d53beee2e2d9e084a314a;10012927;"";"";"";"";International;International
6c206d9528bd7604decc3f582833cd786fde0352b90590fb34fbd4d08b65ae72;10022755;PO Box 86222;Johannesburg;AU;Não informado;International;International
7512eb96865f103bf147a9c8a7875ad967a3862f2d0188dede7a8b07ded0bbc4;10019678;3248 Auburn Boulevard;Sacramento;US;CA;Western;Domestic
54c9469f4e603e248fc684aa072b5602c0ab5e5a34ef4668b6138357ce7eb0b1;10013052;"";"";"";"";International;International
f4c95b1a9d6b1b321412a144b326d759a64997e3857e8c039c5515a65bcec0b4;10002412;"";"";"";"";International;International
0d17e8117df0fe5d347ed9429d4ba8f241353c7287655e14b49080479b6f92d2;10000469;Attention:  Accounts Payable;Montreal;CA;QU;Canada;International
19f7d0b648a91c955d2582ff5b9494635127aa00864ca77b64eb1551c425f6ab;10025024;"";"";"";"";International;International
52c4bfa3fde5d2a0bbe8972690211e02617211ba2290a58457502dd92cf897dc;10025302;4345 South West Boulevard;Tulsa;US;OK;Southern;Domestic
862ce2f5c1c4b43af80d6f76997dd96ecf15013b06504a1e86809aa7fc40926c;10002489;PO Box 266;Villa Rica;US;GA;Southern;Domestic
f99fdb5cff5086f544cf58eb8534c881cd5e971ca280c63c876ecb49e42ab2ac;10020445;PO Box 80;Rapid City;US;SD;Central;Domestic
a3a370e0af3dbc18076a0f45490ea72afa3c99ef332ef0885a6c00e619c22018;10013472;3343 Shelby Street;Indianapolis;US;IN;Central;Domestic
a5659322d7945ca3f046b95be71c7ed8ef7f0220d3a2f7f4dab6e8f92b8682c7;10020256;"";"";"";"";International;International
2547f4384a0fee339d668cccb939498bc447740e5ee1a5d8c459a6845c4d649d;10024016;1-16-33 Kotsubo Zushi;Kanagawa;AU;Não informado;International;International
d0589dbdc78b27a5bd4c66724bf576cd96d159cec820c17d1bec73f3f5f481a7;10026038;"";"";"";"";International;International
7cda79d891ae87dcf74fff94d0ea369e424c3a21cc30dc9f30e87423e163ffa4;10002506;Attention: Doris Nielson;Salt Lake City;US;UT;Western;Domestic
86effecb429eaf9af3fabc7c7f983958a4ba65187eaf15dfa2fc96f4bade4711;10021911;Cnr Avalon Drv & Tasman Road;Te Rapa Hamilton;US;MS;Southern;Domestic
1eff15cf09e698735e09baaab5ab574b0cafdbdda0b12449c299f13eaa957a05;10025508;1809 Main Street;Moncton;CA;NB;Canada;International
f0f16b2146fe9df92d7ce3a1e6b58c523d888f8a8d3b48f724eaae0770254815;10002526;Kadaka Road 72 a;EE 0026 Tallinn;UK;Não informado;International;International
b021a7996ede910a459c08c965dd2e9f835987e418504d13fe4b2348e7382d05;10023275;PO Box 30659;Portland;US;OR;Western;Domestic
bf36a97ee127d64e062b971d97bbcf310c3da2e35d65b91be3ade2b0af94ac20;10027053;PO Box 68;Raleigh;US;IL;Central;Domestic
b2c1d3ba6ae4d394e3d2943062434e5a9db3e1e3c3535e6763a6f89be3f7703a;10009985;PO Drawer 40;West Jordan;US;UT;Western;Domestic
eacd70a95fc0bee80a938a208506cfde013599cb2e5b17731a3a4b6ca4b65031;10027348;6501 Adamo Drive;Tampa;US;FL;Southern;Domestic
bc6edd1fc6f75c7b08c8bf8b7cca08cfe94c1993800d584ff7627135f5b3242a;10015267;5750 Ringe;Sollinge Molle;UK;Não informado;International;International
497e9a3f60608c14af9daa22d6b69c6421bde8c00570e18a043b21664c3d53b3;10011979;Rua Eng Ferreira Dia 241-243;4100 Porto;UK;Não informado;International;International
7ea456bd1c76e7ab91a71d4199a467c07f11ab8bcae7df1f5aea365e842f1c73;10012328;"";"";"";"";International;International
a290d0e586a1c40becabcca3182f7ca922d742d70ed1e3c584bcae7af607890a;10007564;1287 US Highway 59 North;Cleveland;US;TX;Southern;Domestic
58d9b10808efecb15e122f3fc7ade08f5deeeffa8fe6ea2117789ab0f96c4cff;10011734;PO Box 19858 Station N;Atlanta;US;GA;Southern;Domestic
9ea09a12421e71300ad690fd0f506eb541b6d42671a693abb7bbf9247477cbdf;10024034;16215 118th Avenue;Edmonton;CA;AB;Canada;International
74a6ba3c644291e4e7b530e36c90c45594978e3fa6e42f380b931144d732042c;10007448;"";"";"";"";International;International
f5d680b3e3e3bd44ce0de0dc5682ec2da69e8c615e8bfda64c86b61241c2596d;10022167;PO Box 10361;Georgetown;AU;Não informado;International;International
1731d64c198762426ba58c5a8c2a1b89d8e62ef11051e21783fbaadc4eb694a9;10019066;"";"";"";"";International;International
9db34aa6a196a16ad4dd6883624f42ef6d76cb617e08e2a11cf73ebda46a66f9;10025037;725 North Twin Oaks Valley Road;San Marcos;US;CA;Western;Domestic
8691dca08eff3d979644c34591bff8fbd43d76796dda94555f025632eee802d7;10025061;PO Box 80509;Canton;US;OH;Central;Domestic
4db149955fa8865bc1007580065053c5f0f085326a11ffd53423063a625742d7;10025467;"";"";"";"";International;International
9a3032788bc5b416bd1d1d0137db00ad8d5ed34e22283cb7d75cd338dfab22e0;10006848;1101A Potomac Avenue;Fredericksburg;US;VA;Northeast;Domestic
8f897d1e0899cbac877a0756b4d25b3a889765aab08eb9ff266a9c63bf143fc0;10002136;"";"";"";"";International;International
9660c0e67c9baec0a00a4031c66627871cf528a51ca287181b84bcfe1f5078aa;10012715;44 Tunkhannock Avenue;Exeter;US;PA;Northeast;Domestic
22b6faee92e80fa52ab55ad99597f9e7853620da63f95bd0cd9f056018706367;10020491;"";"";"";"";International;International
847a32b212236c2a00fb321d4a8cb36c4448e924b80e505d5d0411637608ecd6;10011821;"";"";"";"";International;International
7bd4dc143c22e8894e8b53d3a822516d9f94040668dc77b2f6c89daf5cd3f87e;Address Number;Customer Address 1;City;Country;State;Region Name;Division Name
f6a5518d24abd2c761ac365c4f81ee45410aa6633189f5cbdd921b0c020f351f;10009653;3355 American Drive;Mississauga;CA;ON;Canada;International
0d97846a8d4fb19a04ee072cff290bb5161728894b00483490baf88a42392877;10016807;Attention  Accounts Payable Department;Overland Park;US;KS;Central;Domestic
c5dc460a1685ecd064c77edd38b406a35a65e8acd6820ccb7510ae4d578f3bd6;10019617;2445 FM 2920;Spring;US;TX;Southern;Domestic
c178da8d368df5f81df3370301a510de8594d1a98ef9703dfa33ff3f14f590fb;10024880;"";"";"";"";International;International
4549b510b007a09afaa3e022ccfc14bbe4b691bca286cc8c9f0795095ef1c11d;10023513;640 N Eldorado Street;Stockton;US;CA;Western;Domestic
349ab60b6aa80aec785aaca6ef4560744a568b7e467a7850102e415440921a87;10025022;Bromley St Lye Stourbridge;West Midlands;UK;Não informado;International;International
8d93013bb9acbc6148d2c3fbf79185ea5aa33689a81e913a41783992eaff3145;10021415;100 Gasoline Alley  Suite A;Indianopolis;US;IN;Central;Domestic
c5437a5eaf8d2c14cfaecb1c1a11c2c6bdc2197c3409e668a5bbdd4387f91d95;10007355;3601 Amarillo Boulevard East;Amarillo;US;TX;Southern;Domestic
7b432f81d813b39e23318d90bf7ef1cd7a511af8df7376448328115636e44c1a;10000457;"";"";"";"";International;International
631a04b240f307e7f397a21a0ab6b31934bbe268dd34df9b79a3600723251d26;10002139;"";"";"";"";International;International
85247f62ef3d93c8d77fe07837a25a5a54118948a7b697a8410bece9c147b41b;10021158;#9 - 19257 Enterprise Way;Surrey;CA;BC;Canada;International
cc1eb455f6e40563e75fa4c21658e22902deda2f51fe2a084163b136ce588502;10011997;2177 Dale Avenue SE;Roanoke;US;VA;Northeast;Domestic
282a1ebb43da73b1224762bb712e78b9dadc53616249dfaf1afd72b34ee88c54;10025771;Southern Maryland 4 X 4 Inc;Waldorf;US;MD;Northeast;Domestic
99dd26dcd52af3dce456525bf254027e9187aa959a7686a456655bf6344a5aae;10019420;PO Box 880 PC-112;Ruwi;IR;Não informado;International;International
10ca96b09e722df93f440013ddf1f2d0b13878f3ccfa8c9abaded6bf77256f46;10004602;"";"";"";"";International;International
7623b5b7194a411e4105c81418a3b447db389642b1735e26999b09fad3388c9e;10006916;"";"";"";"";International;International
005eb0eebcf146626b75a23a2cdbcf04947becbad81d6ed44021c42d50a8dedd;10014059;"";"";"";"";International;International
8f21045a8703d17346bf04c52b8c645eb47a24b7ec2e162d9efbec4c2b131a86;10022725;1723 Webb Drive;Norcross;US;GA;Southern;Domestic
2f631b7bf4247792fcec8cae5554049184a04f7377b826320e00e159af244d13;10001818;"";"";"";"";International;International
ecd7b3a673114a1acde53f8ea46039a75955cdcaa291fa9b5c9e935db57790cc;10009652;550 Du Parc Boulevard;Valcourt;CA;QU;Canada;International
fe9401d5f4796b4f080055e4f897023689aa6110c14e55ee4a1caee4d90aa42b;10009650;Plaza Venezuela 1413-1425;La Paz;UK;Não informado;International;International
3f80b4bd6b3d004d3e3be69a055940732834fa15fa6c2fa58cea150a56723c89;10014043;Rinconada De La Floresta 1137;Guadalajara Jal Mexico;IR;Não informado;International;International
4c203dcc9bc9e6b36ac1567f26f21161bb99bd001354803168fabbc21b92f2e0;10011355;"";"";"";"";International;International
21e189312a45bbb718caf887d55db3e3785b3108894925c2f150493af50bb052;10025392;"";"";"";"";International;International
458ab311f3745107db3744a13d854afe39918d75ad79ce8e34a7912d66530c14;10019512;"";"";"";"";International;International
32936fca44bb147e0c8a9b693cf09e70596a565661cf4d36d69f5050b995e6f1;10006919;"";"";"";"";International;International
af941e3713ff95669007ace01f7006c2a0cf4d08c303ddddda8d4e27e235f971;10006836;AV 6 DE DICIEMBRE;Quito;UK;Não informado;International;International
3b2fb26850d78cbeda31517a85121c046be3d09fd091376f2096a5904aa52409;10000474;PO Box 3265;Des Moines;US;IA;Central;Domestic
0f6a4c8cbd70619b2d4ba057cf4a6f27a8cd58ed8ca8084ae7b6f9cadc5e3e3c;10008893;508 South First Street;Yakama;US;WA;Western;Domestic
c239ce70b80a9ab3e30035b48fa094f845b1dad0b22446a1165373cc9659dc13;10021977;Attention  Accounts Payable Department;Overland Park;US;KS;Central;Domestic
d3212633e24186efa3ae0604912314554ad6669c2281d03898af60d96f15c268;10010887;9605 56th Avenue;Edmonton;CA;AB;Canada;International
09cf22f4732f1d5779797121b563cd77848b494acf901d4ab444d031e0e5c9df;10002161;"";"";"";"";International;International
7fd3217ba193716f6063f11e5ccd50df1124f8633f85bdae4b37e67fcd4699e0;10019952;"";"";"";"";International;International
2ea68483a81b63e9c051dfdcf833c55d0e262a9dc3922bdbbae57b516e822466;10020639;PO Box 3445;Tulsa;US;OK;Southern;Domestic
f1c65cea97385f32d78dee1a1abd4915988c1729894225e408a264e6ef01c85d;10020849;"";"";"";"";International;International
421c8eefdb932ffacfe20bc97b7d6008554d9386340894f4b9dccd35785209b1;10024270;PO Box 1010;Maxwell;US;CA;Western;Domestic
858b83e3806645bb53b9cb1cfdd3f6fdff3ba10bca7bb0efd2ee8aa18ac60460;10027572;2210 Bowen Road;Elma;US;NY;Northeast;Domestic
d22a7f7c1a146482e43dee2b37eaa2271d15566932285f48cdc403dfc78edbd1;10016784;PO Box 129;Pocahontas;US;IA;Central;Domestic
864e37b17a0958947e88cf51a73e20e7861e0ce75487d58486d688f5f3c16fb9;10024499;8302 Jet Pilot;Houston;US;TX;Southern;Domestic
037376b449cd63a1f55b330cf2309fd18141bab4a3d9d64631f069df367b8244;10018628;12805 SW 77th Place;Tigard;US;OR;Western;Domestic
31cf8108674e7b42b7609414d50edd24354c2a1f82f411adcc76a2983f59bdef;10003554;"";"";"";"";International;International
305591455d351ea6bae2a72e2c335d5faa6d6367d93b269fa057aeebaa5b17b2;10026522;4353 W 1900 N-48;Fairmount;US;IN;Central;Domestic
7ff20ae2d4d42e741e53da1f1cbd7c5609d1660656c4964eaf3c2c770b4de20b;10011499;"";"";"";"";International;International
7491ddce32b928575395c9e76264e6e4120fe4ec3ad30c93fa1a5bb3f37ffecb;10015253;"";"";"";"";International;International
3b507b34063bf5e8309487b49156e423184b55882c1bb9c47038dd3363d913d6;10023212;c/o Tom's Bronco Parts;Medford;US;OR;Western;Domestic
d930816175b5d5d4478a73e1c515c0921b84742c8fcdb685cc5465d045ade167;10025252;PO Box 4405;Elkhart;US;IN;Central;Domestic
5e32c7e348caf35519420129889d274abc87a0215b98083ea2a2d420a86f26e5;10026365;"";"";"";"";International;International
2011b16d3b6e4fe5536fe5491e94c9d32bdc033e747c244150bb8b8335d98b6e;10025242;Parts Division;Seoul;AU;Não informado;International;International
ca893b4ead0c11ce6248682079385b2b22736b4a41d9d6a05153c10f352e4bd7;10016564;PO Box 2338;Traverse City;US;MI;Central;Domestic
9a251ab9e3505de6e909832015002392bccb66cc2ef61c3eeb061bdaed85d8d5;10013899;"";"";"";"";International;International
f289795c9c67c4fa33788fbdee94bb7480fab3455141f880c2ebd218b2a832dd;10009645;"";"";"";"";International;International
47a634f652be706dbdcba93b0208333fdfd9d187f4bcda8454175da68134bfb0;10011981;PO Box 2640;Missoula;US;MT;Western;Domestic
67145fa3843cc1454e1d89ddeb1152a7df9b5712a6196099487f81e61382ea7a;10013312;"";"";"";"";International;International
31d813624b8da882dea3a4263c13833cf317e02dedfcf3f23ca92c7fb06f278f;10002220;1594 Nicholson Street;Prince George;CA;BC;Canada;International
6b0ea51b762d2bd7cb9a39aaff3784b666b401c3789e1a570b6c69fc91f3adcd;10023003;400 Jay Street;Coldwater;US;MI;Central;Domestic
cfeb6248042612428d74c0207ff32dc8cbbb2c2646a6786883327a8b44019ce7;10014264;1935 S Campbell;Springfield;US;MO;Central;Domestic
f1eae07847b38ee3a41ffc11515391d930ab654d3d0631fb98592c0729f1d394;10007866;Rua Sepetiba 464;Sao Paulo;UK;Não informado;International;International
e14d07d088accdbeed7060213636bb20eaa332d9c8a055ef7d9aada49faf85f3;10025052;150-3 Chilkei-Dong;Songtan SI;AU;Não informado;International;International
eb053872a8786c2d5040dccc6ad2c919adeb27d5366406f3a5892e1c592605f4;10018665;1028 Saunders Lane;Wester Chester;US;PA;Northeast;Domestic
6c6ce3184fa30f9efe40f11927bbd0808300219af8c429625c74d78e321b37d3;10022168;PO Box 113;Cass City;US;MI;Central;Domestic
155d4a8fbfeae3e196162ce543fbb5759494a458503001d3ba61e19065c10d5e;10002969;12000 Balls Ford Road;Manassas;US;VA;Northeast;Domestic
667e606437f2fedda6f66d73f4b3e4143be6354d8d1e4673225e021bde44967d;10015793;3248 Auburn Boulevard;Sacramento;US;CA;Western;Domestic
01ba0a4635d4106a18e21507d2826ec111ac28316c3043f61240486095a27fc4;10021006;"";"";"";"";International;International
5983d02c777d3b728876f232d7eec222aaa7bad7e6652a3b00ac03dd26387bad;10020868;"";"";"";"";International;International
d3b4240a3eaf56b2214c23a953128f150747dcb9e7c155456de148566be2e5ed;10017828;PO Box 762;Cypress;US;CA;Western;Domestic
ada10008c38c064b36212571f3267f968a6779050c95deb69cbdd336736cc798;10007457;"";"";"";"";International;International
fc28de1f7c0c0070b19fb0e0bba2e53028d20ddbb188394eb07ddfcb5a6cfe76;10019913;10901 Macleod Trail South;Calgary;CA;AB;Canada;International
2dd51c252d5e2d59608c31327fb9c4ab0fd8d4e7d253f1c0d83b4145a300dbe4;10016334;Attention Accounts Payable Department;Overland Park;US;KS;Central;Domestic
217de177da6f4a1a11fb9f148a535cdea62498d76be6fd3b3c75719be052d1c4;10007309;Limited Reg Number 28388;Não informado;UK;Não informado;International;International
9a3399b13e148242a5e89aff37126366659a2c1df3c825bed092eabad911dbd7;10018363;EDIF N 4141;Panama Rep De Panama;IR;Não informado;International;International
43a4ee9c24d67dcac3e2a9a0699be1a43956483de03b653734f26cec3d7925bd;10026291;1880 N Westwood;Poplar Bluff;US;MO;Central;Domestic
76af2beff3a158472c87385f2d1bf7a0abb156df4926db5ee1dd42a2b8f71d2e;10020909;Attention: Accounts Payable Department;Canton;US;OH;Central;Domestic
baffbb0cf4bb727154a7e9232a3417915a82bc7bb92ee85f530e12f835ab0733;10020715;Avda 10 De Mayo S/N;Linares (Jaen);UK;Não informado;International;International
e6b8a9b01dd6a0a9766270722b8368be53ad71bd150de24fb661dc13a3262ca2;10004302;9555 Airline Highway;Baton Rouge;US;LA;Southern;Domestic
a499f0b79401b9bc92b72df1a94afe6d0382ffcb561ca00c83fd878298aa4b24;10003795;PO Box 2484;Baton Rouge;US;LA;Southern;Domestic
7ac4bf6ff379fbcd4b2e56eb3b0db9ad77c81b5925ee4b1c99501faec007b388;10000460;709 Rivergate Parkway;Goodlettsville;US;TN;Southern;Domestic
40b070d423e14afc6dc1392970c8ff7b94407b520990e3602780684b8d76eff1;10011052;"";"";"";"";International;International
a4ec080052e21628cdd683b122f741bb7316e87604837c4c12c73270030c10cc;10024999;RR 2 BOX 9;Andover;US;SD;Central;Domestic
b7ba11301a69e29e71fa7e8660f70c67bb2265adb44a1cbc14b6fdf518d236a9;10021145;1127 South First Street NE;Brookhaven;US;MS;Southern;Domestic
7c524ac3c21bec63cc2f15ae144245bca0687ee09adadd367ad8ee4a3bd6c77d;10018352;"";"";"";"";International;International
0a30f7ad69f4ad4410dab59498a4d96a06a9365ccf264ff2eaa3409e3432de52;10012422;PO Box 510;Saginaw;US;AL;Southern;Domestic
fb2c4fbb56109424381535c67625f3ca8825065d5f3ae9c4ac697fbb48166c47;10023524;PO Box 1006;Clemson;US;SC;Southern;Domestic
2ef60c2f569ecf78fdc1554f55c1b9312c135e0f8e54064bc6de688df3a00e5b;10025758;4532 Enterprise Drive;Oklahoma City;US;OK;Southern;Domestic
2fd05884b1fc11209d023977d3b115482ff24a740608a6d4a3e0539142f82029;10013252;Dallas PDC #15;Irving;US;TX;Southern;Domestic
da99a63b47bdbb39af5c5160b9c5302ffb0c0b53545eaf487f73cbdaa37c4dc5;10012600;"";"";"";"";International;International
36c8e2a8c10ff58b32674296bf852156e8c36c58722a4604f3e5b66b819a0a31;10013061;"";"";"";"";International;International
0ba54bf20c8d31c3ae06474a516f99776ba33b90ccec0b9c5c2ef5e5d4272ee2;10007134;"";"";"";"";International;International
75a5889ed0dcbcdd11a7b7c6533df0a074863d5149f8f0a152cdc3f72ba65e66;10019942;299 East Country Road 300 South;New Castle;US;IN;Central;Domestic
f7e088b8bfc8c2da3bf01e351cd9b54718bb822f578b0a6f30d6ba9cb690654b;10014739;Division of Parkhurst;Tulsa;US;OK;Southern;Domestic
280bd616866637a7ce25f303dcbfc9e6ea7cbaa2df7633ca0343117a155838c4;10008381;10023 128th St. E #7;Puyallup;US;WA;Western;Domestic
ef3aef2866891dcaf55673d3c9efdd151cdb77bac8a60126b209969f52e4d0aa;10013538;"";"";"";"";International;International
9f1f5c7083fae5f60b0a90e3bb0c7b641cfb588c4d16797fc2df28530cca91d8;10020413;PO Box 447;Okarche;US;OK;Southern;Domestic
00bab8d258a9a615a694b27968bbd7db39f33e8fc1e9dac1e1fc752dfb212637;10010698;17010 S Main Street;Gardena;US;CA;Western;Domestic
12edd1e04eb5d1b4efee023a0f290ab4c8bb08bdacf68f2800ad8727d108499a;10023757;"";"";"";"";International;International
4e55e08a79e2354cd47b38585557c939db097827d63fa0dce36b7714f7b11913;10002244;Spicer Clark - Hurth Off Highway Div;Statesville;US;NC;Southern;Domestic
e9ecc362363aa6834a2d8521a84a7d4d971d78f285dba0d23102ec23f4280ca5;10023471;915 West 42nd;Odessa;US;TX;Southern;Domestic
9acadc2d5f674e8d96a5a19504947431532de167877c080072a918cf52e5b656;10018868;PO Box 871 Safat;Não informado;AU;Não informado;International;International
b14a2c309d6b76371d2c1513378dfa96dab2f4a90e0297d17dbc52172d20c868;10025575;PO Box 640;Beamsville;CA;ON;Canada;International
133a9bc0007f309ae5527b828067b0bbd9660906071ff7ac1dde4bdf797459bf;10015956;"";"";"";"";International;International
1e6ef1cf803f2249a723593832859d4725abbc98436493bb96066111b3f5280e;10009156;DBA Badlands Off Road Park;Attica;US;IN;Central;Domestic
6fd8e1f40491410347872af7bdb00702a384532219dfc6176abf342bd2e4aaef;10000481;Box 5516;Chicago;US;IL;Central;Domestic
38474d55936388bbef2512d05ad79b1224781effa7d239690478ee2febbbd252;10024725;PO Box 174;Jasper;US;TX;Southern;Domestic
73ed3ed89817b18326e4f6cdd2308a7541823207092818294a45cbfc6c31a3bd;10025304;Não informado;Não informado;UK;Não informado;International;International
f57307191cc71f131ac8028cc05a79cfd877df5dbfd7743b7378efd6540ecf48;10000486;"";"";"";"";International;International
48b0b2f0091d1fb8e1285d9d344176e05f895de2445d65e80fe3ebc671d2bf67;10023516;2900 Northwest 73rd Street;Miami;US;FL;Southern;Domestic
b09e49829cb469603410886040425cdb4dfa6ab4dee1d3c9ccf6d17efd6487ee;10026062;2301 Central Parkway;Houston;US;TX;Southern;Domestic
55871fa4cead36dc6e522bd2c56590869df80d35a9d6757855362cc1bd1a308f;10025251;A Scott Fetzer Company;Wooster;US;OH;Central;Domestic
78d1a32fe90746c6b5cbbe0e29a480e5132a87496f0b58bf6d1b23260b99121b;10026581;PO Box 22249;Savannah;US;GA;Southern;Domestic
634d664648322707a397edd0186b1d38362de37a8dc4d72638ee863bb27bb75b;10023793;PO Box 249;Holden;US;LA;Southern;Domestic
d133d144079755d767342c9962ed39a782e36fcdeb98dc986a4340c772de2503;10013127;"";"";"";"";International;International
